{
  "type": "FeatureCollection",
  "generator": "overpass-turbo",
  "copyright": "The data included in this document is from www.openstreetmap.org. The data is made available under ODbL.",
  "timestamp": "2026-04-07T12:59:35Z",
  "features": [
    {
      "type": "Feature",
      "properties": {
        "@id": "relation/2094267",
        "name": "Садовое кольцо",
        "name:af": "Tuinring",
        "name:cs": "Sadovoje kolco",
        "name:cv": "Сад унки",
        "name:da": "Haveringen",
        "name:de": "Gartenring",
        "name:en": "Garden Ring",
        "name:eo": "Ĝardena ringo",
        "name:fi": "Puutarhakehä",
        "name:he": "טבעת הגנים",
        "name:it": "Anello dei giardini",
        "name:ja": "サドーヴォエ環状道路",
        "name:nl": "Tuinring",
        "name:pl": "Pierścień Sadowy",
        "name:pt": "Anel de Jardins",
        "name:sv": "Trädgårdsringen",
        "name:uk": "Садове кільце",
        "name:zh": "花园环路",
        "route": "road",
        "type": "route",
        "wikidata": "Q961888",
        "wikipedia": "ru:Садовое кольцо"
      },
      "geometry": {
        "type": "MultiLineString",
        "coordinates": [
          [
            [
              37.6556386,
              55.7491753
            ],
            [
              37.6555856,
              55.7485735
            ],
            [
              37.6551071,
              55.7447107
            ],
            [
              37.655063,
              55.7444575
            ],
            [
              37.6550088,
              55.7442039
            ],
            [
              37.6549549,
              55.7440108
            ],
            [
              37.6547524,
              55.7433329
            ],
            [
              37.654641,
              55.7430045
            ],
            [
              37.6544924,
              55.7426729
            ],
            [
              37.6543323,
              55.742385
            ],
            [
              37.6541311,
              55.7420966
            ],
            [
              37.6537965,
              55.7417226
            ],
            [
              37.6534202,
              55.7413489
            ],
            [
              37.6530356,
              55.7410296
            ],
            [
              37.6523428,
              55.7405064
            ],
            [
              37.6519638,
              55.7402334
            ],
            [
              37.6509314,
              55.7395084
            ],
            [
              37.6508463,
              55.7394499
            ],
            [
              37.6508271,
              55.7394366
            ],
            [
              37.650282,
              55.7390625
            ],
            [
              37.6499745,
              55.7388545
            ],
            [
              37.6498132,
              55.738743
            ],
            [
              37.6492853,
              55.7383755
            ],
            [
              37.6450775,
              55.7355342
            ],
            [
              37.6436411,
              55.734534
            ],
            [
              37.6435824,
              55.7345004
            ],
            [
              37.643166,
              55.7342731
            ],
            [
              37.6428703,
              55.7341202
            ],
            [
              37.6426175,
              55.7339847
            ],
            [
              37.6422252,
              55.7337815
            ],
            [
              37.6421126,
              55.7337219
            ],
            [
              37.6415983,
              55.7334527
            ],
            [
              37.6414588,
              55.7333764
            ],
            [
              37.6411946,
              55.733233
            ],
            [
              37.6408325,
              55.7330393
            ],
            [
              37.6404612,
              55.7328323
            ],
            [
              37.6403169,
              55.7327512
            ],
            [
              37.6399776,
              55.7325507
            ],
            [
              37.6398191,
              55.7324532
            ],
            [
              37.639667,
              55.7323496
            ],
            [
              37.6394431,
              55.7322038
            ],
            [
              37.6393043,
              55.7321131
            ],
            [
              37.6390696,
              55.7319719
            ],
            [
              37.6388973,
              55.7318775
            ],
            [
              37.6387095,
              55.7317884
            ],
            [
              37.6385446,
              55.7317159
            ],
            [
              37.6383401,
              55.7316385
            ],
            [
              37.6380651,
              55.7315464
            ],
            [
              37.637809,
              55.7314505
            ],
            [
              37.6376239,
              55.7313825
            ],
            [
              37.6375421,
              55.7313538
            ],
            [
              37.6374724,
              55.7313342
            ],
            [
              37.6372571,
              55.7312783
            ],
            [
              37.6371069,
              55.7312424
            ],
            [
              37.6369252,
              55.7312011
            ],
            [
              37.6367596,
              55.7311666
            ],
            [
              37.6364679,
              55.7311097
            ],
            [
              37.6363596,
              55.7310963
            ],
            [
              37.6362491,
              55.7310862
            ],
            [
              37.6358497,
              55.731044
            ],
            [
              37.6358172,
              55.7310405
            ],
            [
              37.6357838,
              55.7310368
            ],
            [
              37.6344637,
              55.7308888
            ],
            [
              37.6335504,
              55.7307846
            ],
            [
              37.6329715,
              55.7307186
            ],
            [
              37.6315219,
              55.7305631
            ],
            [
              37.6305766,
              55.7304617
            ],
            [
              37.6303315,
              55.730434
            ],
            [
              37.630297,
              55.7304301
            ],
            [
              37.6294827,
              55.7303212
            ],
            [
              37.629116,
              55.7302743
            ],
            [
              37.6260646,
              55.7299531
            ],
            [
              37.625367,
              55.7298953
            ],
            [
              37.6247974,
              55.7298607
            ],
            [
              37.6241677,
              55.7298337
            ],
            [
              37.6236516,
              55.7298218
            ],
            [
              37.6231523,
              55.7298132
            ],
            [
              37.6226244,
              55.7298059
            ],
            [
              37.6211491,
              55.7297852
            ],
            [
              37.6200738,
              55.7297644
            ],
            [
              37.6191,
              55.7297539
            ],
            [
              37.6183297,
              55.7297418
            ],
            [
              37.6177133,
              55.7297321
            ],
            [
              37.6170929,
              55.7297196
            ],
            [
              37.6164803,
              55.7297072
            ],
            [
              37.6161141,
              55.729703
            ],
            [
              37.6155309,
              55.7296989
            ],
            [
              37.6151642,
              55.7297023
            ],
            [
              37.6148485,
              55.7297093
            ],
            [
              37.6145387,
              55.729725
            ],
            [
              37.6141182,
              55.7297504
            ],
            [
              37.6137049,
              55.7297813
            ],
            [
              37.6133193,
              55.7298162
            ],
            [
              37.6129427,
              55.7298566
            ],
            [
              37.6125787,
              55.7299085
            ],
            [
              37.6122188,
              55.7299665
            ],
            [
              37.611858,
              55.7300326
            ],
            [
              37.6115046,
              55.7301039
            ],
            [
              37.6112197,
              55.7301679
            ],
            [
              37.6109054,
              55.7302507
            ],
            [
              37.6105884,
              55.7303356
            ],
            [
              37.6102064,
              55.7304499
            ],
            [
              37.6094638,
              55.7306846
            ],
            [
              37.6086157,
              55.730954
            ],
            [
              37.6085955,
              55.7309605
            ],
            [
              37.6068963,
              55.7315033
            ],
            [
              37.606107,
              55.7317583
            ],
            [
              37.6051004,
              55.7320837
            ],
            [
              37.6047459,
              55.7321961
            ],
            [
              37.604,
              55.7324349
            ],
            [
              37.6008342,
              55.7334505
            ],
            [
              37.5973498,
              55.7345849
            ],
            [
              37.595428,
              55.7351998
            ],
            [
              37.5946915,
              55.7354355
            ],
            [
              37.5944742,
              55.7355013
            ],
            [
              37.5942469,
              55.7355816
            ],
            [
              37.5937327,
              55.735767
            ],
            [
              37.5930372,
              55.7360058
            ],
            [
              37.5926732,
              55.7361253
            ],
            [
              37.5914138,
              55.7365545
            ],
            [
              37.5910427,
              55.7366866
            ],
            [
              37.5902173,
              55.7370082
            ],
            [
              37.5899619,
              55.7371077
            ],
            [
              37.5895756,
              55.737253
            ],
            [
              37.5895029,
              55.7372823
            ],
            [
              37.5888394,
              55.7375485
            ],
            [
              37.5886955,
              55.7376061
            ],
            [
              37.5873063,
              55.7381638
            ],
            [
              37.5869818,
              55.7382953
            ],
            [
              37.5867025,
              55.7384196
            ],
            [
              37.5864281,
              55.7385661
            ],
            [
              37.5863192,
              55.7386422
            ],
            [
              37.5862227,
              55.7387222
            ],
            [
              37.5861348,
              55.7388177
            ],
            [
              37.5860107,
              55.7389963
            ],
            [
              37.5859411,
              55.7391125
            ],
            [
              37.585866,
              55.7392378
            ],
            [
              37.5856035,
              55.7396648
            ],
            [
              37.5855236,
              55.7398088
            ],
            [
              37.5855085,
              55.7398364
            ],
            [
              37.5851681,
              55.7405349
            ],
            [
              37.5849082,
              55.7411843
            ],
            [
              37.5848796,
              55.7412549
            ],
            [
              37.5846835,
              55.7417821
            ],
            [
              37.5845041,
              55.7422629
            ],
            [
              37.5844698,
              55.7423545
            ],
            [
              37.5844579,
              55.7423862
            ],
            [
              37.5842114,
              55.7430385
            ],
            [
              37.584149,
              55.7431956
            ],
            [
              37.5839218,
              55.7437646
            ],
            [
              37.5836829,
              55.7443236
            ],
            [
              37.5836403,
              55.7444269
            ],
            [
              37.5835217,
              55.7446948
            ],
            [
              37.5833974,
              55.7449964
            ],
            [
              37.5832567,
              55.7453194
            ],
            [
              37.583186,
              55.7454818
            ],
            [
              37.5831139,
              55.7456517
            ],
            [
              37.5828891,
              55.7461814
            ],
            [
              37.5827779,
              55.7464435
            ],
            [
              37.5826882,
              55.7466504
            ],
            [
              37.5826528,
              55.7467527
            ],
            [
              37.5826242,
              55.7468984
            ],
            [
              37.5826176,
              55.7470186
            ],
            [
              37.5826313,
              55.7471653
            ],
            [
              37.5826413,
              55.7472799
            ],
            [
              37.582709,
              55.7478166
            ],
            [
              37.5827908,
              55.7483648
            ],
            [
              37.5828708,
              55.7489534
            ],
            [
              37.5829107,
              55.7492092
            ],
            [
              37.5829665,
              55.749773
            ],
            [
              37.5830294,
              55.7501381
            ],
            [
              37.5830743,
              55.7503772
            ],
            [
              37.5833619,
              55.7519947
            ],
            [
              37.5835043,
              55.7529527
            ],
            [
              37.583841,
              55.7548685
            ],
            [
              37.5838812,
              55.7549996
            ],
            [
              37.5839241,
              55.755112
            ],
            [
              37.5839601,
              55.7552289
            ],
            [
              37.5841583,
              55.7561211
            ],
            [
              37.5843882,
              55.7571675
            ],
            [
              37.5843907,
              55.7571779
            ],
            [
              37.5844197,
              55.7573182
            ],
            [
              37.5845725,
              55.7580106
            ],
            [
              37.5846234,
              55.758246
            ],
            [
              37.5846818,
              55.7585215
            ],
            [
              37.5847218,
              55.7586385
            ],
            [
              37.5847929,
              55.7588468
            ],
            [
              37.5848159,
              55.7589072
            ],
            [
              37.5848771,
              55.7590449
            ],
            [
              37.5849127,
              55.7591227
            ],
            [
              37.5849651,
              55.7592241
            ],
            [
              37.5851267,
              55.7595093
            ],
            [
              37.5854037,
              55.7599454
            ],
            [
              37.5855125,
              55.7601113
            ],
            [
              37.585672,
              55.7603597
            ],
            [
              37.5858855,
              55.7606606
            ],
            [
              37.5863959,
              55.761376
            ],
            [
              37.5865792,
              55.7616202
            ],
            [
              37.5870237,
              55.7622031
            ],
            [
              37.5871293,
              55.7623396
            ],
            [
              37.5873026,
              55.7625637
            ],
            [
              37.5875719,
              55.7629099
            ],
            [
              37.5877184,
              55.763094
            ],
            [
              37.5879754,
              55.7634142
            ],
            [
              37.5882263,
              55.7636927
            ],
            [
              37.5883946,
              55.7638771
            ],
            [
              37.5885605,
              55.7640515
            ],
            [
              37.5889298,
              55.7644061
            ],
            [
              37.5892715,
              55.7647117
            ],
            [
              37.5895758,
              55.7649518
            ],
            [
              37.5900296,
              55.7652934
            ],
            [
              37.590393,
              55.7655469
            ],
            [
              37.5906371,
              55.7657201
            ],
            [
              37.5907352,
              55.7657876
            ],
            [
              37.5913086,
              55.7662021
            ],
            [
              37.5921567,
              55.7668054
            ],
            [
              37.5923439,
              55.7669386
            ],
            [
              37.592994,
              55.7673839
            ],
            [
              37.5932824,
              55.7675819
            ],
            [
              37.5933352,
              55.7676187
            ],
            [
              37.593767,
              55.7679426
            ],
            [
              37.5940382,
              55.7681245
            ],
            [
              37.5948381,
              55.768633
            ],
            [
              37.5951642,
              55.7688355
            ],
            [
              37.5954785,
              55.7690214
            ],
            [
              37.5957215,
              55.7691548
            ],
            [
              37.5959732,
              55.7692847
            ],
            [
              37.5978011,
              55.7701825
            ],
            [
              37.5980741,
              55.7703167
            ],
            [
              37.5983872,
              55.770457
            ],
            [
              37.5986788,
              55.7705823
            ],
            [
              37.5990098,
              55.7707126
            ],
            [
              37.5992948,
              55.7708186
            ],
            [
              37.5993656,
              55.7708454
            ],
            [
              37.5996098,
              55.7709377
            ],
            [
              37.6001096,
              55.7711076
            ],
            [
              37.6005369,
              55.7712449
            ],
            [
              37.6010685,
              55.771393
            ],
            [
              37.6018742,
              55.7716246
            ],
            [
              37.6023947,
              55.7717737
            ],
            [
              37.6030401,
              55.7719622
            ],
            [
              37.6038072,
              55.7721862
            ],
            [
              37.6041368,
              55.7722825
            ],
            [
              37.6042742,
              55.7723197
            ],
            [
              37.6044849,
              55.7723833
            ],
            [
              37.6046804,
              55.7724266
            ],
            [
              37.605063,
              55.7725123
            ],
            [
              37.6052099,
              55.7725414
            ],
            [
              37.6054032,
              55.772576
            ],
            [
              37.6055289,
              55.772597
            ],
            [
              37.6057452,
              55.7726304
            ],
            [
              37.6070019,
              55.7728139
            ],
            [
              37.6073058,
              55.7728569
            ],
            [
              37.6075878,
              55.7728953
            ],
            [
              37.6078205,
              55.7729242
            ],
            [
              37.6082937,
              55.772983
            ],
            [
              37.608455,
              55.7730003
            ],
            [
              37.6090519,
              55.7730613
            ],
            [
              37.6099797,
              55.7731535
            ],
            [
              37.6103827,
              55.7731916
            ],
            [
              37.6104575,
              55.7731986
            ],
            [
              37.6110876,
              55.7732584
            ],
            [
              37.611748,
              55.7733069
            ],
            [
              37.612362,
              55.7733401
            ],
            [
              37.6131313,
              55.7733686
            ],
            [
              37.6134349,
              55.7733793
            ],
            [
              37.6141123,
              55.7734223
            ],
            [
              37.6145012,
              55.7734368
            ],
            [
              37.6151622,
              55.7734578
            ],
            [
              37.6166407,
              55.7735078
            ],
            [
              37.6174281,
              55.7735355
            ],
            [
              37.6182114,
              55.7735631
            ],
            [
              37.6191207,
              55.773592
            ],
            [
              37.6200277,
              55.773617
            ],
            [
              37.6208856,
              55.7736334
            ],
            [
              37.6217454,
              55.7736393
            ],
            [
              37.6224568,
              55.7736371
            ],
            [
              37.6228865,
              55.7736289
            ],
            [
              37.6231659,
              55.7736236
            ],
            [
              37.6236907,
              55.7736129
            ],
            [
              37.6242117,
              55.7735985
            ],
            [
              37.6246667,
              55.7735814
            ],
            [
              37.6251171,
              55.7735591
            ],
            [
              37.6255017,
              55.7735354
            ],
            [
              37.6258907,
              55.7735059
            ],
            [
              37.6261811,
              55.7734818
            ],
            [
              37.6270559,
              55.7734045
            ],
            [
              37.6276403,
              55.7733343
            ],
            [
              37.6281971,
              55.7732593
            ],
            [
              37.6290214,
              55.7731446
            ],
            [
              37.629172,
              55.7731234
            ],
            [
              37.6302411,
              55.772973
            ],
            [
              37.6305728,
              55.7729258
            ],
            [
              37.631233,
              55.7728328
            ],
            [
              37.6318797,
              55.7727437
            ],
            [
              37.6320382,
              55.7727219
            ],
            [
              37.6322895,
              55.7726884
            ],
            [
              37.6325778,
              55.772651
            ],
            [
              37.6330714,
              55.7725874
            ],
            [
              37.6331645,
              55.7725756
            ],
            [
              37.6333548,
              55.7725527
            ],
            [
              37.6353868,
              55.7723381
            ],
            [
              37.6358209,
              55.7722881
            ],
            [
              37.6362952,
              55.7722227
            ],
            [
              37.6367824,
              55.7721475
            ],
            [
              37.637267,
              55.7720615
            ],
            [
              37.637591,
              55.7719957
            ],
            [
              37.6378888,
              55.7719325
            ],
            [
              37.6383931,
              55.7718059
            ],
            [
              37.6388812,
              55.771673
            ],
            [
              37.6392591,
              55.7715582
            ],
            [
              37.6394575,
              55.7714968
            ],
            [
              37.6397699,
              55.7714024
            ],
            [
              37.6400983,
              55.7713016
            ],
            [
              37.6415772,
              55.7708461
            ],
            [
              37.6423919,
              55.7705987
            ],
            [
              37.6430458,
              55.7704032
            ],
            [
              37.6432089,
              55.7703544
            ],
            [
              37.6434683,
              55.7702753
            ],
            [
              37.6435526,
              55.7702512
            ],
            [
              37.6436273,
              55.7702299
            ],
            [
              37.6437226,
              55.7702027
            ],
            [
              37.644117,
              55.7700768
            ],
            [
              37.6442401,
              55.7700375
            ],
            [
              37.6443773,
              55.7699937
            ],
            [
              37.6454224,
              55.7696742
            ],
            [
              37.6456597,
              55.7696033
            ],
            [
              37.6458841,
              55.7695382
            ],
            [
              37.646125,
              55.7694738
            ],
            [
              37.6471285,
              55.769226
            ],
            [
              37.6473752,
              55.7691649
            ],
            [
              37.6474385,
              55.769148
            ],
            [
              37.6476659,
              55.7690934
            ],
            [
              37.6478304,
              55.7690213
            ],
            [
              37.6480673,
              55.7689389
            ],
            [
              37.6485063,
              55.7688222
            ],
            [
              37.6489251,
              55.7687022
            ],
            [
              37.6493834,
              55.7685619
            ],
            [
              37.6497802,
              55.7684251
            ],
            [
              37.6499967,
              55.7683339
            ],
            [
              37.6501873,
              55.7682265
            ],
            [
              37.6506539,
              55.7679009
            ],
            [
              37.6515403,
              55.7672516
            ],
            [
              37.6519769,
              55.7669292
            ],
            [
              37.6525845,
              55.7664944
            ],
            [
              37.6528421,
              55.7663181
            ],
            [
              37.6534579,
              55.7659073
            ],
            [
              37.6538661,
              55.765635
            ],
            [
              37.654915,
              55.7649202
            ],
            [
              37.6555831,
              55.7644649
            ],
            [
              37.6558512,
              55.7642803
            ],
            [
              37.6560236,
              55.7641501
            ],
            [
              37.6560936,
              55.7640899
            ],
            [
              37.6561443,
              55.7640398
            ],
            [
              37.6562143,
              55.7639642
            ],
            [
              37.656265,
              55.7638961
            ],
            [
              37.6563997,
              55.7636733
            ],
            [
              37.6566463,
              55.7631937
            ],
            [
              37.6569178,
              55.7626524
            ],
            [
              37.6570073,
              55.762449
            ],
            [
              37.6570505,
              55.7623441
            ],
            [
              37.6571629,
              55.7620431
            ],
            [
              37.6572497,
              55.761772
            ],
            [
              37.6573543,
              55.7613387
            ],
            [
              37.6574567,
              55.7606228
            ],
            [
              37.65748,
              55.7603963
            ],
            [
              37.6574868,
              55.7603105
            ],
            [
              37.6574982,
              55.7601684
            ],
            [
              37.6575637,
              55.7593467
            ],
            [
              37.6575912,
              55.7587855
            ],
            [
              37.6576098,
              55.7584065
            ],
            [
              37.6576159,
              55.7581244
            ],
            [
              37.6576116,
              55.7579318
            ],
            [
              37.6575921,
              55.7576461
            ],
            [
              37.6575816,
              55.7574915
            ],
            [
              37.657529,
              55.7570811
            ],
            [
              37.6574221,
              55.75656
            ],
            [
              37.6573191,
              55.756153
            ],
            [
              37.6571588,
              55.755566
            ],
            [
              37.6571365,
              55.7554944
            ],
            [
              37.6568731,
              55.7547518
            ],
            [
              37.6568654,
              55.7547304
            ],
            [
              37.6566104,
              55.7541472
            ],
            [
              37.6566046,
              55.7541339
            ],
            [
              37.6564012,
              55.753674
            ],
            [
              37.656119,
              55.7530215
            ],
            [
              37.6560071,
              55.7527626
            ],
            [
              37.6559442,
              55.7526048
            ],
            [
              37.6559031,
              55.752484
            ],
            [
              37.6558814,
              55.7523607
            ],
            [
              37.655858,
              55.7520907
            ],
            [
              37.6558371,
              55.751785
            ],
            [
              37.6558161,
              55.7512296
            ],
            [
              37.6557979,
              55.7510438
            ],
            [
              37.6557939,
              55.7510035
            ],
            [
              37.6557521,
              55.7504481
            ],
            [
              37.6556988,
              55.7497693
            ],
            [
              37.655649,
              55.7493499
            ]
          ],
          [
            [
              37.6521073,
              55.7401661
            ],
            [
              37.6524907,
              55.7404399
            ],
            [
              37.6531912,
              55.7409666
            ],
            [
              37.653583,
              55.7412919
            ],
            [
              37.6539673,
              55.7416734
            ],
            [
              37.6543087,
              55.742056
            ],
            [
              37.6545064,
              55.7423529
            ],
            [
              37.6546638,
              55.742644
            ],
            [
              37.6548165,
              55.7429816
            ],
            [
              37.6549307,
              55.7433123
            ],
            [
              37.6551495,
              55.7439935
            ],
            [
              37.6552169,
              55.7442847
            ],
            [
              37.655248,
              55.7444477
            ],
            [
              37.6552895,
              55.7447054
            ],
            [
              37.6557806,
              55.7485613
            ],
            [
              37.6558837,
              55.7491563
            ],
            [
              37.6558998,
              55.749272
            ],
            [
              37.6559052,
              55.7493045
            ],
            [
              37.6559683,
              55.7498179
            ],
            [
              37.6560275,
              55.7505022
            ],
            [
              37.6560329,
              55.7506063
            ],
            [
              37.6560683,
              55.7509734
            ],
            [
              37.6560779,
              55.7511151
            ],
            [
              37.6561471,
              55.7522838
            ],
            [
              37.6561753,
              55.7524436
            ],
            [
              37.6562202,
              55.7525723
            ],
            [
              37.6562807,
              55.7527249
            ],
            [
              37.656675,
              55.7536034
            ],
            [
              37.6569188,
              55.7542009
            ],
            [
              37.6570765,
              55.7545843
            ],
            [
              37.6571889,
              55.7548585
            ],
            [
              37.6572984,
              55.7551668
            ],
            [
              37.6574769,
              55.7556232
            ],
            [
              37.6575739,
              55.7559724
            ],
            [
              37.6576218,
              55.7561515
            ],
            [
              37.6577072,
              55.7564941
            ],
            [
              37.6577734,
              55.7568296
            ],
            [
              37.6578606,
              55.7573446
            ],
            [
              37.6578961,
              55.7578314
            ],
            [
              37.6578856,
              55.7583159
            ],
            [
              37.6578838,
              55.7584042
            ],
            [
              37.6578676,
              55.7587892
            ],
            [
              37.6578659,
              55.7588309
            ],
            [
              37.6578421,
              55.7593689
            ],
            [
              37.6578322,
              55.7595688
            ],
            [
              37.6577906,
              55.7601892
            ],
            [
              37.6576878,
              55.7610568
            ],
            [
              37.6576456,
              55.7613291
            ],
            [
              37.657591,
              55.7615602
            ],
            [
              37.6575309,
              55.7617829
            ],
            [
              37.6574658,
              55.7619955
            ],
            [
              37.6573981,
              55.7621893
            ],
            [
              37.6573181,
              55.762384
            ],
            [
              37.657153,
              55.7627689
            ],
            [
              37.6569995,
              55.7630855
            ],
            [
              37.6568647,
              55.7633518
            ],
            [
              37.6568155,
              55.763455
            ],
            [
              37.656534,
              55.7639598
            ],
            [
              37.6564778,
              55.7640435
            ],
            [
              37.6564269,
              55.7641028
            ],
            [
              37.6563983,
              55.7641383
            ],
            [
              37.6563125,
              55.7642087
            ],
            [
              37.6562434,
              55.7642639
            ],
            [
              37.6560702,
              55.7643837
            ],
            [
              37.6557227,
              55.7646241
            ],
            [
              37.6555841,
              55.7647203
            ],
            [
              37.6541826,
              55.7656427
            ],
            [
              37.6533301,
              55.7662096
            ],
            [
              37.6530901,
              55.766366
            ],
            [
              37.6523768,
              55.7668732
            ],
            [
              37.6522564,
              55.7669588
            ],
            [
              37.6518833,
              55.7672321
            ],
            [
              37.6514879,
              55.7675192
            ],
            [
              37.6509628,
              55.7679001
            ],
            [
              37.6502194,
              55.7684267
            ],
            [
              37.6500368,
              55.7685572
            ],
            [
              37.6498778,
              55.7686414
            ],
            [
              37.649674,
              55.7687315
            ],
            [
              37.6494343,
              55.7688093
            ],
            [
              37.6492257,
              55.7688746
            ],
            [
              37.6488241,
              55.7689827
            ],
            [
              37.6485033,
              55.7690647
            ],
            [
              37.648004,
              55.769187
            ],
            [
              37.6466693,
              55.769528
            ],
            [
              37.6462514,
              55.7696307
            ],
            [
              37.646016,
              55.7696887
            ],
            [
              37.6457037,
              55.76977
            ],
            [
              37.6451415,
              55.7699311
            ],
            [
              37.6445367,
              55.7701125
            ],
            [
              37.6442457,
              55.7702044
            ],
            [
              37.6438855,
              55.7703181
            ],
            [
              37.6437895,
              55.7703487
            ],
            [
              37.6437199,
              55.7703709
            ],
            [
              37.6436321,
              55.7703989
            ],
            [
              37.6431801,
              55.7705366
            ],
            [
              37.6424988,
              55.7707442
            ],
            [
              37.6406252,
              55.7713213
            ],
            [
              37.6405936,
              55.771331
            ],
            [
              37.6397262,
              55.7715906
            ],
            [
              37.6389661,
              55.7718191
            ],
            [
              37.6384433,
              55.7719572
            ],
            [
              37.6379101,
              55.7720875
            ],
            [
              37.6372985,
              55.7722111
            ],
            [
              37.6370974,
              55.7722475
            ],
            [
              37.63674,
              55.7723106
            ],
            [
              37.6363484,
              55.7723722
            ],
            [
              37.6358249,
              55.7724447
            ],
            [
              37.6354628,
              55.7724865
            ],
            [
              37.6341055,
              55.7726288
            ],
            [
              37.633135,
              55.7727418
            ],
            [
              37.6327859,
              55.7727886
            ],
            [
              37.6325092,
              55.7728248
            ],
            [
              37.6322946,
              55.7728514
            ],
            [
              37.6320525,
              55.772885
            ],
            [
              37.6319457,
              55.7728993
            ],
            [
              37.6316482,
              55.7729393
            ],
            [
              37.6311115,
              55.7730098
            ],
            [
              37.6304849,
              55.7730992
            ],
            [
              37.6302786,
              55.773132
            ],
            [
              37.6294457,
              55.7732534
            ],
            [
              37.6287174,
              55.7733553
            ],
            [
              37.6278692,
              55.7734613
            ],
            [
              37.6271268,
              55.7735256
            ],
            [
              37.6262025,
              55.773595
            ],
            [
              37.625915,
              55.7736171
            ],
            [
              37.625771,
              55.773628
            ],
            [
              37.6255258,
              55.7736466
            ],
            [
              37.6251367,
              55.7736706
            ],
            [
              37.6246821,
              55.773693
            ],
            [
              37.6242232,
              55.7737103
            ],
            [
              37.6236992,
              55.7737248
            ],
            [
              37.6231729,
              55.7737355
            ],
            [
              37.6224607,
              55.7737491
            ],
            [
              37.6217448,
              55.7737514
            ],
            [
              37.620881,
              55.7737454
            ],
            [
              37.6200195,
              55.7737289
            ],
            [
              37.6191102,
              55.7737038
            ],
            [
              37.6181995,
              55.773675
            ],
            [
              37.6174156,
              55.7736473
            ],
            [
              37.616628,
              55.7736196
            ],
            [
              37.6151497,
              55.773569
            ],
            [
              37.6144845,
              55.7735488
            ],
            [
              37.6139313,
              55.7735362
            ],
            [
              37.6134101,
              55.7735299
            ],
            [
              37.612522,
              55.7735026
            ],
            [
              37.6117662,
              55.7734594
            ],
            [
              37.611064,
              55.7734125
            ],
            [
              37.6103921,
              55.7733522
            ],
            [
              37.6089518,
              55.7732161
            ],
            [
              37.6085855,
              55.7731823
            ],
            [
              37.6082257,
              55.7731424
            ],
            [
              37.6079114,
              55.7731013
            ],
            [
              37.6073559,
              55.7730316
            ],
            [
              37.6069627,
              55.7729717
            ],
            [
              37.6058699,
              55.7728038
            ],
            [
              37.6053428,
              55.7727178
            ],
            [
              37.6049828,
              55.7726478
            ],
            [
              37.6046455,
              55.7725745
            ],
            [
              37.6044479,
              55.7725302
            ],
            [
              37.6042682,
              55.7724858
            ],
            [
              37.6041867,
              55.7724659
            ],
            [
              37.6038941,
              55.7723811
            ],
            [
              37.6036933,
              55.7723207
            ],
            [
              37.6033475,
              55.7722166
            ],
            [
              37.6029105,
              55.7720838
            ],
            [
              37.6022663,
              55.7718963
            ],
            [
              37.6009281,
              55.7715037
            ],
            [
              37.6006479,
              55.7714215
            ],
            [
              37.6005441,
              55.7713903
            ],
            [
              37.5994904,
              55.7710168
            ],
            [
              37.5991912,
              55.7709063
            ],
            [
              37.5989069,
              55.7708013
            ],
            [
              37.5985662,
              55.7706695
            ],
            [
              37.5982636,
              55.7705461
            ],
            [
              37.5979393,
              55.7704061
            ],
            [
              37.5976618,
              55.7702764
            ],
            [
              37.5958329,
              55.7693718
            ],
            [
              37.595581,
              55.7692387
            ],
            [
              37.5953381,
              55.7691024
            ],
            [
              37.5950192,
              55.7689108
            ],
            [
              37.5946971,
              55.7687047
            ],
            [
              37.5938984,
              55.7681893
            ],
            [
              37.5936126,
              55.7680049
            ],
            [
              37.5930426,
              55.7676323
            ],
            [
              37.5926788,
              55.7673745
            ],
            [
              37.5923472,
              55.7671437
            ],
            [
              37.5916495,
              55.7666506
            ],
            [
              37.590754,
              55.7660221
            ],
            [
              37.590437,
              55.7658087
            ],
            [
              37.5902924,
              55.7657062
            ],
            [
              37.5900768,
              55.7655475
            ],
            [
              37.5900634,
              55.7655383
            ],
            [
              37.5898404,
              55.7653804
            ],
            [
              37.5893755,
              55.7650273
            ],
            [
              37.5891096,
              55.7648041
            ],
            [
              37.5887712,
              55.7645047
            ],
            [
              37.5883827,
              55.7641456
            ],
            [
              37.588019,
              55.763774
            ],
            [
              37.5877342,
              55.7634456
            ],
            [
              37.5874776,
              55.7631332
            ],
            [
              37.5871503,
              55.7627471
            ],
            [
              37.5870589,
              55.7626331
            ],
            [
              37.5869495,
              55.7625021
            ],
            [
              37.5867724,
              55.7622713
            ],
            [
              37.5866383,
              55.7620904
            ],
            [
              37.5862531,
              55.7615927
            ],
            [
              37.5862168,
              55.7615435
            ],
            [
              37.5857614,
              55.7609061
            ],
            [
              37.5854076,
              55.7604027
            ],
            [
              37.5852479,
              55.7601583
            ],
            [
              37.5851573,
              55.7600076
            ],
            [
              37.5850044,
              55.7597478
            ],
            [
              37.5848897,
              55.759559
            ],
            [
              37.5847705,
              55.7593546
            ],
            [
              37.584721,
              55.7592697
            ],
            [
              37.5846095,
              55.7590142
            ],
            [
              37.584566,
              55.7589308
            ],
            [
              37.584491,
              55.7587363
            ],
            [
              37.5843684,
              55.7583861
            ],
            [
              37.5843199,
              55.7581864
            ],
            [
              37.5843037,
              55.7581197
            ],
            [
              37.5841834,
              55.7575526
            ],
            [
              37.5841181,
              55.7572137
            ],
            [
              37.5840848,
              55.7570276
            ],
            [
              37.5840099,
              55.7565979
            ],
            [
              37.5839697,
              55.7563497
            ],
            [
              37.5839134,
              55.7561036
            ],
            [
              37.5838231,
              55.7557243
            ],
            [
              37.5837522,
              55.7554266
            ],
            [
              37.5837131,
              55.7552318
            ],
            [
              37.583627,
              55.7547122
            ],
            [
              37.5833317,
              55.75296
            ],
            [
              37.5831742,
              55.7520053
            ],
            [
              37.5828752,
              55.7503687
            ],
            [
              37.5828326,
              55.7501458
            ],
            [
              37.5827734,
              55.7497919
            ],
            [
              37.5826426,
              55.7492244
            ],
            [
              37.5825702,
              55.7487823
            ],
            [
              37.5825369,
              55.7485701
            ],
            [
              37.5824263,
              55.7479249
            ],
            [
              37.5824104,
              55.7478313
            ],
            [
              37.5823368,
              55.7472757
            ],
            [
              37.5823215,
              55.7471656
            ],
            [
              37.5823136,
              55.7470184
            ],
            [
              37.5823154,
              55.7468948
            ],
            [
              37.5823193,
              55.7467922
            ],
            [
              37.5823374,
              55.746688
            ],
            [
              37.582372,
              55.7465894
            ],
            [
              37.5824722,
              55.7463465
            ],
            [
              37.5825086,
              55.7462682
            ],
            [
              37.5825843,
              55.7460939
            ],
            [
              37.5827372,
              55.7457681
            ],
            [
              37.5829304,
              55.7453584
            ],
            [
              37.5830522,
              55.7450968
            ],
            [
              37.5835959,
              55.7438528
            ],
            [
              37.5836103,
              55.7438198
            ],
            [
              37.5840005,
              55.7428307
            ],
            [
              37.5841939,
              55.7423232
            ],
            [
              37.5845801,
              55.7412829
            ],
            [
              37.5848709,
              55.7405415
            ],
            [
              37.584929,
              55.7404153
            ],
            [
              37.5851455,
              55.7399526
            ],
            [
              37.5852615,
              55.739734
            ],
            [
              37.5854681,
              55.7393715
            ],
            [
              37.5857332,
              55.7389331
            ],
            [
              37.5857596,
              55.7388916
            ],
            [
              37.5858843,
              55.7387366
            ],
            [
              37.5860447,
              55.7385754
            ],
            [
              37.5861203,
              55.7385078
            ],
            [
              37.5861869,
              55.7384674
            ],
            [
              37.5864254,
              55.7383325
            ],
            [
              37.586798,
              55.7381749
            ],
            [
              37.5869581,
              55.7381046
            ],
            [
              37.5871966,
              55.7380034
            ],
            [
              37.5892565,
              55.7371847
            ],
            [
              37.5893522,
              55.7371478
            ],
            [
              37.5897849,
              55.7369805
            ],
            [
              37.5906427,
              55.7366517
            ],
            [
              37.5912948,
              55.7364133
            ],
            [
              37.5921949,
              55.7361082
            ],
            [
              37.5923333,
              55.736061
            ],
            [
              37.5926662,
              55.735952
            ],
            [
              37.5929314,
              55.735863
            ],
            [
              37.593302,
              55.7357371
            ],
            [
              37.5934259,
              55.7356987
            ],
            [
              37.5939719,
              55.7355249
            ],
            [
              37.5940923,
              55.735493
            ],
            [
              37.5941831,
              55.7354689
            ],
            [
              37.594415,
              55.7353996
            ],
            [
              37.5946218,
              55.7353429
            ],
            [
              37.5972611,
              55.7344958
            ],
            [
              37.6007374,
              55.7333526
            ],
            [
              37.6033572,
              55.7325117
            ],
            [
              37.6039019,
              55.7323435
            ],
            [
              37.6046663,
              55.7320996
            ],
            [
              37.605035,
              55.731982
            ],
            [
              37.6058428,
              55.7317232
            ],
            [
              37.6068093,
              55.7314179
            ],
            [
              37.6073483,
              55.7312446
            ],
            [
              37.6079478,
              55.7310519
            ],
            [
              37.6084612,
              55.730883
            ],
            [
              37.6085328,
              55.7308593
            ],
            [
              37.6093901,
              55.7305858
            ],
            [
              37.6101353,
              55.7303526
            ],
            [
              37.6104965,
              55.7302455
            ],
            [
              37.6108282,
              55.7301545
            ],
            [
              37.6111489,
              55.73007
            ],
            [
              37.6114365,
              55.7300023
            ],
            [
              37.6117975,
              55.7299302
            ],
            [
              37.6121614,
              55.7298635
            ],
            [
              37.6125297,
              55.7298041
            ],
            [
              37.612904,
              55.7297509
            ],
            [
              37.6132869,
              55.7297098
            ],
            [
              37.6136765,
              55.7296745
            ],
            [
              37.614098,
              55.729643
            ],
            [
              37.6145223,
              55.7296174
            ],
            [
              37.6148365,
              55.7296024
            ],
            [
              37.6151589,
              55.7295952
            ],
            [
              37.6155305,
              55.7295918
            ],
            [
              37.6160824,
              55.7295958
            ],
            [
              37.6161282,
              55.7295961
            ],
            [
              37.616485,
              55.7295986
            ],
            [
              37.6171062,
              55.7296119
            ],
            [
              37.6178829,
              55.7296315
            ],
            [
              37.6183825,
              55.7296354
            ],
            [
              37.6191046,
              55.7296461
            ],
            [
              37.6202038,
              55.7296579
            ],
            [
              37.6226291,
              55.7297005
            ],
            [
              37.6231572,
              55.7297083
            ],
            [
              37.6236588,
              55.729717
            ],
            [
              37.6241789,
              55.729729
            ],
            [
              37.6248144,
              55.7297563
            ],
            [
              37.6253901,
              55.7297912
            ],
            [
              37.6260952,
              55.7298496
            ],
            [
              37.6291516,
              55.7301683
            ],
            [
              37.6295471,
              55.7302049
            ],
            [
              37.6303701,
              55.7302713
            ],
            [
              37.6308593,
              55.7303243
            ],
            [
              37.6315392,
              55.7303983
            ],
            [
              37.6332348,
              55.7305828
            ],
            [
              37.6339167,
              55.7306579
            ],
            [
              37.6340368,
              55.7306726
            ],
            [
              37.6349415,
              55.7307836
            ],
            [
              37.6349849,
              55.7307889
            ],
            [
              37.6350861,
              55.7308002
            ],
            [
              37.6358584,
              55.7308875
            ],
            [
              37.6358857,
              55.7308911
            ],
            [
              37.6359184,
              55.7308954
            ],
            [
              37.6359456,
              55.7308986
            ],
            [
              37.6359727,
              55.7309018
            ],
            [
              37.6360069,
              55.7309044
            ],
            [
              37.6362251,
              55.7309319
            ],
            [
              37.6363261,
              55.7309462
            ],
            [
              37.6364256,
              55.7309615
            ],
            [
              37.6365544,
              55.730984
            ],
            [
              37.6366811,
              55.7310074
            ],
            [
              37.6368414,
              55.7310382
            ],
            [
              37.637013,
              55.7310769
            ],
            [
              37.6371753,
              55.7311126
            ],
            [
              37.6373772,
              55.731162
            ],
            [
              37.6375072,
              55.7311949
            ],
            [
              37.6380149,
              55.7313395
            ],
            [
              37.6380568,
              55.731353
            ],
            [
              37.638273,
              55.7314229
            ],
            [
              37.6384983,
              55.7314973
            ],
            [
              37.6387149,
              55.7315815
            ],
            [
              37.6388893,
              55.7316578
            ],
            [
              37.6391058,
              55.7317608
            ],
            [
              37.6392674,
              55.7318484
            ],
            [
              37.6394217,
              55.7319394
            ],
            [
              37.6395974,
              55.7320512
            ],
            [
              37.6397134,
              55.7321271
            ],
            [
              37.6398857,
              55.7322404
            ],
            [
              37.6400399,
              55.7323472
            ],
            [
              37.6403444,
              55.7325296
            ],
            [
              37.6408029,
              55.7327867
            ],
            [
              37.6410364,
              55.7329185
            ],
            [
              37.641088,
              55.7329475
            ],
            [
              37.6413562,
              55.7331016
            ],
            [
              37.6415466,
              55.7332112
            ],
            [
              37.6416814,
              55.7332881
            ],
            [
              37.6417559,
              55.7333307
            ],
            [
              37.6422662,
              55.7335988
            ],
            [
              37.6424908,
              55.7337162
            ],
            [
              37.6433827,
              55.7341875
            ],
            [
              37.6439504,
              55.7345081
            ],
            [
              37.6443511,
              55.7347924
            ],
            [
              37.6452709,
              55.7354307
            ],
            [
              37.6494827,
              55.7382903
            ],
            [
              37.6496829,
              55.7384329
            ],
            [
              37.6501056,
              55.7387339
            ],
            [
              37.6502004,
              55.7388015
            ],
            [
              37.6504545,
              55.7389824
            ],
            [
              37.650975,
              55.7393541
            ],
            [
              37.6521073,
              55.7401661
            ]
          ]
        ]
      },
      "id": "relation/2094267"
    }
  ]
}