{
  "type": "FeatureCollection",
  "generator": "overpass-turbo",
  "copyright": "The data included in this document is from www.openstreetmap.org. The data is made available under ODbL.",
  "timestamp": "2026-04-07T13:11:59Z",
  "features": [
    {
      "type": "Feature",
      "properties": {
        "@id": "relation/2094286",
        "name": "Третье транспортное кольцо",
        "name:be": "Трэцяе Транспартнае Кальцо",
        "name:da": "Tredje ring",
        "name:de": "Dritter Verkehrsring",
        "name:en": "Third Ring Road",
        "name:es": "Tercer Anillo",
        "name:fi": "Kolmoskehä",
        "name:fr": "Troisième anneau routier",
        "name:he": "טבעת התחבורה השלישית",
        "name:it": "Terza strada circolare",
        "name:ja": "モスクワ3号環状道路",
        "name:nl": "Derde Ringweg",
        "name:ru": "Третье транспортное кольцо",
        "name:uk": "Третє транспортне кільце",
        "name:ur": "تیسری رنگ روڈ",
        "name:zh": "莫斯科三環路",
        "note": "msk-ttk-area",
        "route": "road",
        "short_name": "ТТК",
        "type": "route",
        "wikidata": "Q1259260",
        "wikipedia": "ru:Третье транспортное кольцо"
      },
      "geometry": {
        "type": "MultiLineString",
        "coordinates": [
          [
            [
              37.6394176,
              55.7922046
            ],
            [
              37.6398018,
              55.7922804
            ],
            [
              37.6398188,
              55.7922836
            ],
            [
              37.6398347,
              55.7922866
            ],
            [
              37.6402921,
              55.7923818
            ],
            [
              37.6413654,
              55.7926048
            ],
            [
              37.6429688,
              55.792935
            ],
            [
              37.644367,
              55.7932187
            ],
            [
              37.6456004,
              55.7934669
            ],
            [
              37.6458897,
              55.7935224
            ],
            [
              37.646095,
              55.7935584
            ],
            [
              37.6463868,
              55.7936007
            ],
            [
              37.6466498,
              55.7936363
            ],
            [
              37.646908,
              55.7936666
            ],
            [
              37.6470762,
              55.7936837
            ],
            [
              37.6473156,
              55.7937011
            ],
            [
              37.6475647,
              55.7937189
            ],
            [
              37.6477759,
              55.7937295
            ],
            [
              37.6478578,
              55.7937336
            ],
            [
              37.6481214,
              55.7937414
            ],
            [
              37.6484502,
              55.7937424
            ],
            [
              37.6489271,
              55.7937323
            ],
            [
              37.6493538,
              55.7937105
            ],
            [
              37.6496605,
              55.7936882
            ],
            [
              37.6499894,
              55.7936519
            ],
            [
              37.6502987,
              55.7936136
            ],
            [
              37.6506521,
              55.7935576
            ],
            [
              37.6510499,
              55.7934843
            ],
            [
              37.6514846,
              55.793392
            ],
            [
              37.6518628,
              55.7932945
            ],
            [
              37.6522382,
              55.7931866
            ],
            [
              37.6525695,
              55.7930788
            ],
            [
              37.6528749,
              55.7929697
            ],
            [
              37.6531557,
              55.7928614
            ],
            [
              37.6534072,
              55.7927533
            ],
            [
              37.6535807,
              55.7926715
            ],
            [
              37.6536622,
              55.7926315
            ],
            [
              37.6537368,
              55.7925948
            ],
            [
              37.6538689,
              55.7925273
            ],
            [
              37.6540371,
              55.7924413
            ],
            [
              37.6544017,
              55.7922333
            ],
            [
              37.6545869,
              55.7921153
            ],
            [
              37.65476,
              55.7919923
            ],
            [
              37.6550936,
              55.7917379
            ],
            [
              37.6556452,
              55.7913196
            ],
            [
              37.6560493,
              55.7910117
            ],
            [
              37.6563281,
              55.790804
            ],
            [
              37.6564838,
              55.790688
            ],
            [
              37.6565683,
              55.7906251
            ],
            [
              37.656665,
              55.7905499
            ],
            [
              37.6568543,
              55.7904044
            ],
            [
              37.6571369,
              55.7901871
            ],
            [
              37.6575224,
              55.7898904
            ],
            [
              37.6583018,
              55.789295
            ],
            [
              37.659043,
              55.7887293
            ],
            [
              37.6600357,
              55.7879562
            ],
            [
              37.6615006,
              55.7867978
            ],
            [
              37.6629059,
              55.7857279
            ],
            [
              37.6632593,
              55.7854563
            ],
            [
              37.6633566,
              55.7853809
            ],
            [
              37.6639099,
              55.7849521
            ],
            [
              37.6645567,
              55.7844479
            ],
            [
              37.6647441,
              55.7843045
            ],
            [
              37.6648768,
              55.784203
            ],
            [
              37.6652668,
              55.7839047
            ],
            [
              37.66548,
              55.7837426
            ],
            [
              37.665504,
              55.7837244
            ],
            [
              37.6656052,
              55.7836524
            ],
            [
              37.6657425,
              55.7835548
            ],
            [
              37.6661273,
              55.7832811
            ],
            [
              37.6667108,
              55.7828744
            ],
            [
              37.6670122,
              55.782673
            ],
            [
              37.6678707,
              55.7821614
            ],
            [
              37.6704885,
              55.7808051
            ],
            [
              37.6719766,
              55.7801022
            ],
            [
              37.6724276,
              55.7799128
            ],
            [
              37.6732454,
              55.7796029
            ],
            [
              37.675955,
              55.7786208
            ],
            [
              37.6771372,
              55.7782125
            ],
            [
              37.6795347,
              55.7773477
            ],
            [
              37.6798584,
              55.7772231
            ],
            [
              37.6801021,
              55.7771195
            ],
            [
              37.6802092,
              55.7770734
            ],
            [
              37.6804094,
              55.7769737
            ],
            [
              37.6805478,
              55.7769069
            ],
            [
              37.6809711,
              55.7766884
            ],
            [
              37.6812339,
              55.7765355
            ],
            [
              37.6812801,
              55.7765086
            ],
            [
              37.6814987,
              55.7763814
            ],
            [
              37.6819401,
              55.7760874
            ],
            [
              37.6830546,
              55.7752626
            ],
            [
              37.6836314,
              55.7748246
            ],
            [
              37.684091,
              55.7744757
            ],
            [
              37.6843395,
              55.7742881
            ],
            [
              37.6860165,
              55.7729948
            ],
            [
              37.6865708,
              55.7726237
            ],
            [
              37.6870974,
              55.7722979
            ],
            [
              37.6875328,
              55.7720204
            ],
            [
              37.6879143,
              55.7717198
            ],
            [
              37.6882395,
              55.7713982
            ],
            [
              37.6885035,
              55.7710597
            ],
            [
              37.6887058,
              55.7707074
            ],
            [
              37.6888412,
              55.770346
            ],
            [
              37.6889104,
              55.7699777
            ],
            [
              37.6889116,
              55.7696081
            ],
            [
              37.6888451,
              55.7692402
            ],
            [
              37.6887121,
              55.768878
            ],
            [
              37.6878516,
              55.767142
            ],
            [
              37.6877456,
              55.766973
            ],
            [
              37.6876237,
              55.7667819
            ],
            [
              37.6871073,
              55.7661282
            ],
            [
              37.6866597,
              55.7655618
            ],
            [
              37.6857524,
              55.7644133
            ],
            [
              37.6853798,
              55.7639202
            ],
            [
              37.6852367,
              55.763671
            ],
            [
              37.6850704,
              55.7632164
            ],
            [
              37.6850597,
              55.7631693
            ],
            [
              37.6845701,
              55.761011
            ],
            [
              37.6844832,
              55.7602911
            ],
            [
              37.6844786,
              55.7599972
            ],
            [
              37.6845203,
              55.7598111
            ],
            [
              37.6847124,
              55.7594091
            ],
            [
              37.6849344,
              55.7590512
            ],
            [
              37.6851601,
              55.7587664
            ],
            [
              37.6853612,
              55.7585691
            ],
            [
              37.6860561,
              55.7580905
            ],
            [
              37.6864961,
              55.757825
            ],
            [
              37.6869953,
              55.7575839
            ],
            [
              37.6910751,
              55.755862
            ],
            [
              37.6916898,
              55.7555613
            ],
            [
              37.6922569,
              55.7552324
            ],
            [
              37.6927725,
              55.7548776
            ],
            [
              37.6932325,
              55.7544996
            ],
            [
              37.6936341,
              55.7541008
            ],
            [
              37.6945089,
              55.7530709
            ],
            [
              37.6948938,
              55.7526177
            ],
            [
              37.6951969,
              55.7522902
            ],
            [
              37.69643,
              55.7510663
            ],
            [
              37.6970933,
              55.7504171
            ],
            [
              37.6981023,
              55.7493917
            ],
            [
              37.6983216,
              55.7491239
            ],
            [
              37.6987435,
              55.7486116
            ],
            [
              37.6988907,
              55.7484073
            ],
            [
              37.6992738,
              55.7478324
            ],
            [
              37.6994923,
              55.7473908
            ],
            [
              37.6995821,
              55.7471418
            ],
            [
              37.699647,
              55.7469092
            ],
            [
              37.6996762,
              55.7466663
            ],
            [
              37.6996867,
              55.7464979
            ],
            [
              37.6996587,
              55.7462358
            ],
            [
              37.6996097,
              55.7460079
            ],
            [
              37.6994912,
              55.7457019
            ],
            [
              37.6993859,
              55.7454982
            ],
            [
              37.6986689,
              55.7444634
            ],
            [
              37.6982249,
              55.7438173
            ],
            [
              37.697779,
              55.7430254
            ],
            [
              37.6974618,
              55.7422452
            ],
            [
              37.6973046,
              55.7414313
            ],
            [
              37.6971866,
              55.7407125
            ],
            [
              37.6971973,
              55.7397522
            ],
            [
              37.6973475,
              55.7389248
            ],
            [
              37.6975514,
              55.7382785
            ],
            [
              37.6978089,
              55.7377349
            ],
            [
              37.6980878,
              55.7372033
            ],
            [
              37.6982143,
              55.7369917
            ],
            [
              37.6983748,
              55.7367488
            ],
            [
              37.6986531,
              55.7363917
            ],
            [
              37.6990727,
              55.7358818
            ],
            [
              37.6995067,
              55.7354456
            ],
            [
              37.7006381,
              55.7344386
            ],
            [
              37.7021197,
              55.7331592
            ],
            [
              37.7032981,
              55.7321822
            ],
            [
              37.7038181,
              55.7317809
            ],
            [
              37.7039745,
              55.7316603
            ],
            [
              37.7043599,
              55.7313628
            ],
            [
              37.7052796,
              55.7306909
            ],
            [
              37.7062101,
              55.7299382
            ],
            [
              37.7095253,
              55.727227
            ],
            [
              37.7106322,
              55.7263359
            ],
            [
              37.7108497,
              55.7261457
            ],
            [
              37.7109384,
              55.7260562
            ],
            [
              37.7110122,
              55.7259738
            ],
            [
              37.7110835,
              55.7258698
            ],
            [
              37.7111584,
              55.7257491
            ],
            [
              37.7112163,
              55.7256411
            ],
            [
              37.711265,
              55.7255056
            ],
            [
              37.7113028,
              55.7253762
            ],
            [
              37.7113253,
              55.7252092
            ],
            [
              37.7113259,
              55.7250545
            ],
            [
              37.7113223,
              55.7249159
            ],
            [
              37.7112857,
              55.7247685
            ],
            [
              37.7112351,
              55.7246351
            ],
            [
              37.7111731,
              55.7245009
            ],
            [
              37.7110848,
              55.724362
            ],
            [
              37.7109765,
              55.7242241
            ],
            [
              37.7108517,
              55.7240929
            ],
            [
              37.7107297,
              55.7239796
            ],
            [
              37.7104808,
              55.7237961
            ],
            [
              37.7103136,
              55.7236863
            ],
            [
              37.7101572,
              55.7235973
            ],
            [
              37.7099777,
              55.7235115
            ],
            [
              37.7096896,
              55.7233954
            ],
            [
              37.7084266,
              55.7229279
            ],
            [
              37.7059478,
              55.7220253
            ],
            [
              37.7056984,
              55.7219257
            ],
            [
              37.705483,
              55.7218339
            ],
            [
              37.7052522,
              55.7217239
            ],
            [
              37.704571,
              55.7213829
            ],
            [
              37.7043391,
              55.7212877
            ],
            [
              37.7041333,
              55.7212089
            ],
            [
              37.703917,
              55.7211346
            ],
            [
              37.7036795,
              55.7210588
            ],
            [
              37.7033713,
              55.7209613
            ],
            [
              37.7023224,
              55.7206669
            ],
            [
              37.7014994,
              55.7204215
            ],
            [
              37.6996249,
              55.7198045
            ],
            [
              37.6987579,
              55.7195435
            ],
            [
              37.6967619,
              55.7189427
            ],
            [
              37.6961037,
              55.7187564
            ],
            [
              37.6951358,
              55.7185005
            ],
            [
              37.6944712,
              55.7183383
            ],
            [
              37.6939808,
              55.7182196
            ],
            [
              37.6935957,
              55.718133
            ],
            [
              37.6927573,
              55.7179446
            ],
            [
              37.6912574,
              55.7175923
            ],
            [
              37.6901453,
              55.7173222
            ],
            [
              37.6897876,
              55.7172298
            ],
            [
              37.6894205,
              55.7171285
            ],
            [
              37.6877423,
              55.7166541
            ],
            [
              37.6848782,
              55.7158354
            ],
            [
              37.6845392,
              55.7157256
            ],
            [
              37.6842059,
              55.7156085
            ],
            [
              37.6838037,
              55.7154592
            ],
            [
              37.6834909,
              55.7153366
            ],
            [
              37.6831552,
              55.7151904
            ],
            [
              37.681446,
              55.7144402
            ],
            [
              37.681152,
              55.7143248
            ],
            [
              37.6808791,
              55.7142234
            ],
            [
              37.6806123,
              55.7141268
            ],
            [
              37.6803369,
              55.7140372
            ],
            [
              37.6800163,
              55.7139393
            ],
            [
              37.6750752,
              55.7124971
            ],
            [
              37.6745795,
              55.7123495
            ],
            [
              37.6741111,
              55.7121978
            ],
            [
              37.6736697,
              55.7120463
            ],
            [
              37.6732665,
              55.7118992
            ],
            [
              37.6728294,
              55.711728
            ],
            [
              37.6723397,
              55.7115286
            ],
            [
              37.6718711,
              55.7113149
            ],
            [
              37.6713854,
              55.7110846
            ],
            [
              37.6709003,
              55.7108444
            ],
            [
              37.6680941,
              55.7093908
            ],
            [
              37.6673797,
              55.7090516
            ],
            [
              37.6667494,
              55.7087236
            ],
            [
              37.6662156,
              55.7084123
            ],
            [
              37.6656336,
              55.7080345
            ],
            [
              37.6649253,
              55.707613
            ],
            [
              37.6583494,
              55.7040067
            ],
            [
              37.6578983,
              55.7037904
            ],
            [
              37.6572433,
              55.7035509
            ],
            [
              37.6565918,
              55.7033981
            ],
            [
              37.6558507,
              55.7032963
            ],
            [
              37.6550594,
              55.7032598
            ],
            [
              37.6521898,
              55.7033084
            ],
            [
              37.6511691,
              55.7033301
            ],
            [
              37.6506109,
              55.7033414
            ],
            [
              37.6498869,
              55.7033737
            ],
            [
              37.6490866,
              55.7034376
            ],
            [
              37.6488726,
              55.703457
            ],
            [
              37.6477845,
              55.7035634
            ],
            [
              37.6475451,
              55.7035868
            ],
            [
              37.6471302,
              55.7036274
            ],
            [
              37.6465389,
              55.7036851
            ],
            [
              37.6459223,
              55.7037414
            ],
            [
              37.6438712,
              55.7039092
            ],
            [
              37.6426651,
              55.7040236
            ],
            [
              37.6386003,
              55.704409
            ],
            [
              37.6369655,
              55.704564
            ],
            [
              37.6353431,
              55.7047077
            ],
            [
              37.630259,
              55.7052146
            ],
            [
              37.6265126,
              55.7055855
            ],
            [
              37.6256984,
              55.7056826
            ],
            [
              37.6237354,
              55.7058559
            ],
            [
              37.6233123,
              55.7058871
            ],
            [
              37.6229218,
              55.705911
            ],
            [
              37.6224212,
              55.7059246
            ],
            [
              37.6219534,
              55.7059149
            ],
            [
              37.6215762,
              55.7058949
            ],
            [
              37.6211637,
              55.705855
            ],
            [
              37.6207495,
              55.7057957
            ],
            [
              37.620415,
              55.7057298
            ],
            [
              37.620138,
              55.7056637
            ],
            [
              37.6197464,
              55.7055517
            ],
            [
              37.619407,
              55.705436
            ],
            [
              37.6190929,
              55.7053054
            ],
            [
              37.6188019,
              55.7051661
            ],
            [
              37.6182069,
              55.704848
            ],
            [
              37.6179209,
              55.7046768
            ],
            [
              37.6176365,
              55.7044833
            ],
            [
              37.6172342,
              55.7041559
            ],
            [
              37.6166797,
              55.7036463
            ],
            [
              37.6162927,
              55.7032843
            ],
            [
              37.6161108,
              55.7031104
            ],
            [
              37.6158637,
              55.7029012
            ],
            [
              37.6155747,
              55.7026922
            ],
            [
              37.6152901,
              55.7025026
            ],
            [
              37.6149572,
              55.7022915
            ],
            [
              37.6144981,
              55.7020557
            ],
            [
              37.6138876,
              55.7018137
            ],
            [
              37.6135096,
              55.7016764
            ],
            [
              37.6129384,
              55.7014908
            ],
            [
              37.6123025,
              55.7013259
            ],
            [
              37.6119638,
              55.7012569
            ],
            [
              37.6115085,
              55.7011864
            ],
            [
              37.6109819,
              55.7011293
            ],
            [
              37.6105396,
              55.7010999
            ],
            [
              37.6100878,
              55.7010949
            ],
            [
              37.6097082,
              55.7010976
            ],
            [
              37.6093077,
              55.701123
            ],
            [
              37.6089102,
              55.7011596
            ],
            [
              37.6084409,
              55.7012213
            ],
            [
              37.6078883,
              55.7013211
            ],
            [
              37.6072992,
              55.7014664
            ],
            [
              37.6067427,
              55.7016379
            ],
            [
              37.6047655,
              55.7023027
            ],
            [
              37.6035377,
              55.70268
            ],
            [
              37.6025506,
              55.702953
            ],
            [
              37.6005423,
              55.7034874
            ],
            [
              37.599238,
              55.7038312
            ],
            [
              37.598638,
              55.7039968
            ],
            [
              37.5972244,
              55.7043958
            ],
            [
              37.5928617,
              55.7056285
            ],
            [
              37.5910577,
              55.7061444
            ],
            [
              37.5908413,
              55.7062064
            ],
            [
              37.5901622,
              55.7064176
            ],
            [
              37.5898214,
              55.7065235
            ],
            [
              37.5892552,
              55.7066996
            ],
            [
              37.5888391,
              55.706829
            ],
            [
              37.5885194,
              55.7069234
            ],
            [
              37.587857,
              55.7071555
            ],
            [
              37.5872611,
              55.7073732
            ],
            [
              37.5863471,
              55.7077776
            ],
            [
              37.5858625,
              55.7080333
            ],
            [
              37.5844151,
              55.7088618
            ],
            [
              37.5823493,
              55.7102901
            ],
            [
              37.5815577,
              55.7108374
            ],
            [
              37.5800347,
              55.712056
            ],
            [
              37.5791894,
              55.7127322
            ],
            [
              37.5783239,
              55.713384
            ],
            [
              37.5758569,
              55.7151473
            ],
            [
              37.5754749,
              55.7153668
            ],
            [
              37.5750698,
              55.7155402
            ],
            [
              37.5744744,
              55.7158113
            ],
            [
              37.5716096,
              55.7169806
            ],
            [
              37.5710684,
              55.7172029
            ],
            [
              37.5684946,
              55.7180661
            ],
            [
              37.565204,
              55.7190994
            ],
            [
              37.565098,
              55.7191337
            ],
            [
              37.5619195,
              55.7201623
            ],
            [
              37.5596875,
              55.720837
            ],
            [
              37.5592397,
              55.7209616
            ],
            [
              37.5566808,
              55.7216333
            ],
            [
              37.5553112,
              55.7220809
            ],
            [
              37.554594,
              55.7223606
            ],
            [
              37.5539617,
              55.7226254
            ],
            [
              37.5536326,
              55.7227767
            ],
            [
              37.553271,
              55.7229581
            ],
            [
              37.5526824,
              55.7232694
            ],
            [
              37.5521366,
              55.7235789
            ],
            [
              37.551631,
              55.7239177
            ],
            [
              37.5511014,
              55.7242877
            ],
            [
              37.5506886,
              55.7246013
            ],
            [
              37.5503781,
              55.7248628
            ],
            [
              37.5496173,
              55.7255679
            ],
            [
              37.548724,
              55.7265046
            ],
            [
              37.5458562,
              55.7294637
            ],
            [
              37.5443628,
              55.7309937
            ],
            [
              37.5440732,
              55.7312987
            ],
            [
              37.5438908,
              55.731551
            ],
            [
              37.5438023,
              55.7317001
            ],
            [
              37.5437084,
              55.7319281
            ],
            [
              37.5435153,
              55.7325231
            ],
            [
              37.5434428,
              55.7330147
            ],
            [
              37.5434328,
              55.7330564
            ],
            [
              37.5433409,
              55.733387
            ],
            [
              37.5432603,
              55.7336011
            ],
            [
              37.5432407,
              55.7336533
            ],
            [
              37.5430308,
              55.7340299
            ],
            [
              37.5429117,
              55.7342127
            ],
            [
              37.5425519,
              55.7346433
            ],
            [
              37.5422818,
              55.7348761
            ],
            [
              37.5418832,
              55.7351561
            ],
            [
              37.538945,
              55.7369942
            ],
            [
              37.53842,
              55.7373487
            ],
            [
              37.5381099,
              55.7375772
            ],
            [
              37.5376955,
              55.7378826
            ],
            [
              37.5375534,
              55.7379957
            ],
            [
              37.5371854,
              55.7382885
            ],
            [
              37.5369143,
              55.7385751
            ],
            [
              37.5357888,
              55.7399555
            ],
            [
              37.5354794,
              55.7404481
            ],
            [
              37.5349699,
              55.7412637
            ],
            [
              37.5346923,
              55.7417756
            ],
            [
              37.5346023,
              55.7419697
            ],
            [
              37.5343257,
              55.7425094
            ],
            [
              37.5340881,
              55.7430252
            ],
            [
              37.5340015,
              55.7432587
            ],
            [
              37.5339252,
              55.7435043
            ],
            [
              37.5338848,
              55.7436553
            ],
            [
              37.5337096,
              55.7442972
            ],
            [
              37.5334586,
              55.745255
            ],
            [
              37.5332866,
              55.7460292
            ],
            [
              37.5325945,
              55.7485505
            ],
            [
              37.5324067,
              55.749254
            ],
            [
              37.5323197,
              55.7495232
            ],
            [
              37.5322189,
              55.749814
            ],
            [
              37.5320783,
              55.75013
            ],
            [
              37.5318923,
              55.7504806
            ],
            [
              37.5317726,
              55.7507912
            ],
            [
              37.53166,
              55.7511294
            ],
            [
              37.5315801,
              55.7514553
            ],
            [
              37.5315633,
              55.7518283
            ],
            [
              37.5315973,
              55.7522236
            ],
            [
              37.5316679,
              55.7524909
            ],
            [
              37.5318086,
              55.7528497
            ],
            [
              37.5325086,
              55.7543802
            ],
            [
              37.5329776,
              55.7553999
            ],
            [
              37.5333403,
              55.7562036
            ],
            [
              37.5339431,
              55.7576793
            ],
            [
              37.534101,
              55.7580812
            ],
            [
              37.5351339,
              55.7606451
            ],
            [
              37.5359037,
              55.7625475
            ],
            [
              37.5362078,
              55.7633174
            ],
            [
              37.5363192,
              55.7635482
            ],
            [
              37.537053,
              55.7649288
            ],
            [
              37.5374525,
              55.7657134
            ],
            [
              37.5376992,
              55.7662783
            ],
            [
              37.5377606,
              55.7664252
            ],
            [
              37.5380264,
              55.7669995
            ],
            [
              37.5381791,
              55.7672633
            ],
            [
              37.5384099,
              55.767549
            ],
            [
              37.5387856,
              55.7679015
            ],
            [
              37.5392315,
              55.7683081
            ],
            [
              37.5397287,
              55.7686884
            ],
            [
              37.5402979,
              55.7690544
            ],
            [
              37.541267,
              55.7695838
            ],
            [
              37.5418032,
              55.7698466
            ],
            [
              37.5422528,
              55.7701233
            ],
            [
              37.5426031,
              55.7703868
            ],
            [
              37.5428509,
              55.7706014
            ],
            [
              37.5444533,
              55.7721164
            ],
            [
              37.5448695,
              55.7724824
            ],
            [
              37.5452708,
              55.7727766
            ],
            [
              37.5456833,
              55.772995
            ],
            [
              37.5458696,
              55.7730806
            ],
            [
              37.5460487,
              55.773157
            ],
            [
              37.5462319,
              55.7732286
            ],
            [
              37.5464087,
              55.7732886
            ],
            [
              37.5466112,
              55.7733546
            ],
            [
              37.5468075,
              55.7734125
            ],
            [
              37.5470141,
              55.7734653
            ],
            [
              37.5472034,
              55.7735078
            ],
            [
              37.5474142,
              55.7735521
            ],
            [
              37.5476136,
              55.7735888
            ],
            [
              37.5478252,
              55.7736233
            ],
            [
              37.5480346,
              55.7736511
            ],
            [
              37.5488718,
              55.7737402
            ],
            [
              37.5498393,
              55.7738407
            ],
            [
              37.5505033,
              55.7739085
            ],
            [
              37.550732,
              55.7739323
            ],
            [
              37.550814,
              55.7739407
            ],
            [
              37.5511426,
              55.7739811
            ],
            [
              37.5514508,
              55.7740256
            ],
            [
              37.5517645,
              55.7740801
            ],
            [
              37.5520802,
              55.7741443
            ],
            [
              37.5524262,
              55.7742413
            ],
            [
              37.5527449,
              55.7743437
            ],
            [
              37.5529808,
              55.7744303
            ],
            [
              37.5531749,
              55.774514
            ],
            [
              37.5533886,
              55.7746154
            ],
            [
              37.5535365,
              55.7746955
            ],
            [
              37.5537571,
              55.7748154
            ],
            [
              37.5540289,
              55.7749994
            ],
            [
              37.5542314,
              55.7751561
            ],
            [
              37.5544134,
              55.7753263
            ],
            [
              37.5547919,
              55.7757306
            ],
            [
              37.5555428,
              55.7765698
            ],
            [
              37.5556341,
              55.776713
            ],
            [
              37.5561669,
              55.7774037
            ],
            [
              37.5568533,
              55.7782936
            ],
            [
              37.5576448,
              55.7793197
            ],
            [
              37.5579295,
              55.779633
            ],
            [
              37.5581505,
              55.7798506
            ],
            [
              37.5589927,
              55.7805358
            ],
            [
              37.559216,
              55.7806957
            ],
            [
              37.5594298,
              55.7808489
            ],
            [
              37.5615697,
              55.7823816
            ],
            [
              37.5621142,
              55.7827668
            ],
            [
              37.5626104,
              55.7831358
            ],
            [
              37.5652769,
              55.7850263
            ],
            [
              37.5664677,
              55.7858792
            ],
            [
              37.5672704,
              55.7864413
            ],
            [
              37.5686002,
              55.787366
            ],
            [
              37.5698197,
              55.7882954
            ],
            [
              37.570221,
              55.7885964
            ],
            [
              37.5707125,
              55.7889648
            ],
            [
              37.571286,
              55.7893878
            ],
            [
              37.5722944,
              55.7901314
            ],
            [
              37.5726704,
              55.7904059
            ],
            [
              37.5728743,
              55.7905547
            ],
            [
              37.5734043,
              55.7909309
            ],
            [
              37.5738439,
              55.7912422
            ],
            [
              37.5740308,
              55.7913678
            ],
            [
              37.5742214,
              55.7914725
            ],
            [
              37.5744605,
              55.7915674
            ],
            [
              37.5747173,
              55.7916344
            ],
            [
              37.5750078,
              55.7916847
            ],
            [
              37.5753065,
              55.7917174
            ],
            [
              37.5756007,
              55.7917281
            ],
            [
              37.5762647,
              55.7917285
            ],
            [
              37.5773215,
              55.791737
            ],
            [
              37.5788131,
              55.7917373
            ],
            [
              37.5794551,
              55.7917449
            ],
            [
              37.5800452,
              55.7917623
            ],
            [
              37.5808429,
              55.7917988
            ],
            [
              37.5815399,
              55.7918408
            ],
            [
              37.5822544,
              55.7918873
            ],
            [
              37.5829412,
              55.7919347
            ],
            [
              37.5832779,
              55.7919571
            ],
            [
              37.5853096,
              55.7920834
            ],
            [
              37.5857467,
              55.7921002
            ],
            [
              37.5873014,
              55.7921117
            ],
            [
              37.5886377,
              55.7921193
            ],
            [
              37.5897785,
              55.7921189
            ],
            [
              37.5909181,
              55.7921125
            ],
            [
              37.5931165,
              55.7921017
            ],
            [
              37.5947224,
              55.7921009
            ],
            [
              37.5952729,
              55.7921078
            ],
            [
              37.5962384,
              55.7921517
            ],
            [
              37.5964415,
              55.7921659
            ],
            [
              37.5972753,
              55.7922294
            ],
            [
              37.598312,
              55.7923167
            ],
            [
              37.5988668,
              55.7923655
            ],
            [
              37.5993139,
              55.7924048
            ],
            [
              37.5997329,
              55.7924416
            ],
            [
              37.6000492,
              55.7924616
            ],
            [
              37.6006085,
              55.7924968
            ],
            [
              37.600847,
              55.7925101
            ],
            [
              37.6014476,
              55.792539
            ],
            [
              37.6015737,
              55.7925456
            ],
            [
              37.6017832,
              55.792554
            ],
            [
              37.602026,
              55.7925637
            ],
            [
              37.6023876,
              55.7925781
            ],
            [
              37.6030711,
              55.7926089
            ],
            [
              37.6032841,
              55.7926168
            ],
            [
              37.6035373,
              55.7926261
            ],
            [
              37.6043977,
              55.7926578
            ],
            [
              37.6048577,
              55.7926699
            ],
            [
              37.6066049,
              55.7927473
            ],
            [
              37.6095595,
              55.7928678
            ],
            [
              37.6129846,
              55.792988
            ],
            [
              37.6133328,
              55.7929999
            ],
            [
              37.6137362,
              55.793014
            ],
            [
              37.6143379,
              55.7930349
            ],
            [
              37.6147047,
              55.7930444
            ],
            [
              37.6150479,
              55.7930493
            ],
            [
              37.6153873,
              55.7930526
            ],
            [
              37.6157231,
              55.7930536
            ],
            [
              37.6160445,
              55.7930522
            ],
            [
              37.6163691,
              55.7930488
            ],
            [
              37.6166801,
              55.7930448
            ],
            [
              37.6169845,
              55.7930394
            ],
            [
              37.6175726,
              55.7930174
            ],
            [
              37.6181482,
              55.7929921
            ],
            [
              37.6193605,
              55.7929221
            ],
            [
              37.6213432,
              55.7927878
            ],
            [
              37.6235133,
              55.7926615
            ],
            [
              37.6245521,
              55.7926122
            ],
            [
              37.6263835,
              55.7925155
            ],
            [
              37.6272918,
              55.7924653
            ],
            [
              37.6279352,
              55.7924297
            ],
            [
              37.6281124,
              55.7924136
            ],
            [
              37.6282854,
              55.7923902
            ],
            [
              37.6296989,
              55.7921606
            ],
            [
              37.6300827,
              55.7920982
            ],
            [
              37.6305734,
              55.7920079
            ],
            [
              37.6310431,
              55.7919283
            ],
            [
              37.6312811,
              55.7918928
            ],
            [
              37.6315099,
              55.7918634
            ],
            [
              37.6318691,
              55.7918269
            ],
            [
              37.6324173,
              55.7917878
            ],
            [
              37.6326373,
              55.7917772
            ],
            [
              37.6328784,
              55.7917699
            ],
            [
              37.6331504,
              55.7917674
            ],
            [
              37.6334165,
              55.7917679
            ],
            [
              37.6336009,
              55.7917721
            ],
            [
              37.6337851,
              55.7917779
            ],
            [
              37.6340976,
              55.7917912
            ],
            [
              37.634649,
              55.7918174
            ],
            [
              37.6356588,
              55.7918656
            ],
            [
              37.6369023,
              55.791917
            ],
            [
              37.6376228,
              55.7919525
            ],
            [
              37.637896,
              55.7919718
            ],
            [
              37.6382635,
              55.7920116
            ],
            [
              37.638714,
              55.7920785
            ],
            [
              37.6394176,
              55.7922046
            ]
          ],
          [
            [
              37.550235,
              55.774008
            ],
            [
              37.5501576,
              55.7740001
            ],
            [
              37.5491972,
              55.7739031
            ],
            [
              37.5488226,
              55.7738686
            ],
            [
              37.5479577,
              55.7737734
            ],
            [
              37.5477407,
              55.773745
            ],
            [
              37.5475235,
              55.7737105
            ],
            [
              37.5473174,
              55.7736743
            ],
            [
              37.5470948,
              55.7736268
            ],
            [
              37.546891,
              55.7735784
            ],
            [
              37.5466864,
              55.7735229
            ],
            [
              37.546479,
              55.7734624
            ],
            [
              37.5462668,
              55.7733952
            ],
            [
              37.5460849,
              55.7733328
            ],
            [
              37.5459013,
              55.7732604
            ],
            [
              37.5457155,
              55.7731821
            ],
            [
              37.5455289,
              55.7730989
            ],
            [
              37.5450715,
              55.7728383
            ],
            [
              37.5446702,
              55.7725538
            ],
            [
              37.544249,
              55.7721764
            ],
            [
              37.5428737,
              55.77086
            ],
            [
              37.5426487,
              55.7706446
            ],
            [
              37.5424765,
              55.7705102
            ],
            [
              37.5422412,
              55.7703181
            ],
            [
              37.5419531,
              55.7701226
            ],
            [
              37.5416625,
              55.7699496
            ],
            [
              37.5410466,
              55.7696443
            ],
            [
              37.5401264,
              55.7691434
            ],
            [
              37.5395297,
              55.7687565
            ],
            [
              37.5390528,
              55.7683876
            ],
            [
              37.538574,
              55.7679602
            ],
            [
              37.5382215,
              55.7676355
            ],
            [
              37.5380033,
              55.7673805
            ],
            [
              37.5378183,
              55.7670964
            ],
            [
              37.5376468,
              55.7667392
            ],
            [
              37.5370385,
              55.7653181
            ],
            [
              37.5367032,
              55.7646857
            ],
            [
              37.5361666,
              55.7636806
            ],
            [
              37.5360092,
              55.7633421
            ],
            [
              37.5356276,
              55.7624453
            ],
            [
              37.5353499,
              55.7617539
            ],
            [
              37.5351502,
              55.7612601
            ],
            [
              37.5347768,
              55.7605808
            ],
            [
              37.5345964,
              55.7602459
            ],
            [
              37.533768,
              55.758483
            ],
            [
              37.5334027,
              55.7576383
            ],
            [
              37.5331783,
              55.7570828
            ],
            [
              37.5331147,
              55.7569256
            ],
            [
              37.5324897,
              55.7553457
            ],
            [
              37.5315351,
              55.7529995
            ],
            [
              37.5313976,
              55.7526534
            ],
            [
              37.5313277,
              55.752447
            ],
            [
              37.5312816,
              55.7522443
            ],
            [
              37.5312336,
              55.7520048
            ],
            [
              37.5312291,
              55.7517986
            ],
            [
              37.5312474,
              55.7515465
            ],
            [
              37.5313376,
              55.7512221
            ],
            [
              37.5314392,
              55.7508494
            ],
            [
              37.5315019,
              55.7506627
            ],
            [
              37.5315531,
              55.7505066
            ],
            [
              37.531606,
              55.7503772
            ],
            [
              37.5318601,
              55.7499106
            ],
            [
              37.5320191,
              55.7495806
            ],
            [
              37.532178,
              55.7490268
            ],
            [
              37.5326393,
              55.747136
            ],
            [
              37.5328861,
              55.7462725
            ],
            [
              37.5330169,
              55.7457149
            ],
            [
              37.5333604,
              55.7445067
            ],
            [
              37.5336631,
              55.743481
            ],
            [
              37.533714,
              55.7433263
            ],
            [
              37.5339054,
              55.7427931
            ],
            [
              37.5340898,
              55.7424097
            ],
            [
              37.5341489,
              55.7422921
            ],
            [
              37.534698,
              55.7412285
            ],
            [
              37.5352335,
              55.740253
            ],
            [
              37.5356473,
              55.7396268
            ],
            [
              37.5360325,
              55.7391465
            ],
            [
              37.5369487,
              55.7382658
            ],
            [
              37.537432,
              55.7378177
            ],
            [
              37.5378699,
              55.7374608
            ],
            [
              37.5380085,
              55.7373679
            ],
            [
              37.5390777,
              55.7366589
            ],
            [
              37.5397293,
              55.7362524
            ],
            [
              37.5408305,
              55.7355514
            ],
            [
              37.5415922,
              55.7350905
            ],
            [
              37.5417508,
              55.7349968
            ],
            [
              37.5419617,
              55.7348455
            ],
            [
              37.5423029,
              55.73458
            ],
            [
              37.5425575,
              55.7343225
            ],
            [
              37.5427935,
              55.7340192
            ],
            [
              37.5429665,
              55.7337131
            ],
            [
              37.5430712,
              55.7334219
            ],
            [
              37.5431443,
              55.7331354
            ],
            [
              37.5433189,
              55.7323065
            ],
            [
              37.5434067,
              55.732051
            ],
            [
              37.5435105,
              55.7318249
            ],
            [
              37.5436091,
              55.7316321
            ],
            [
              37.5437691,
              55.7313669
            ],
            [
              37.5439363,
              55.7311477
            ],
            [
              37.5456174,
              55.7293886
            ],
            [
              37.548468,
              55.7264278
            ],
            [
              37.5485142,
              55.7263788
            ],
            [
              37.5490267,
              55.7258107
            ],
            [
              37.5493517,
              55.7254788
            ],
            [
              37.5501244,
              55.7247718
            ],
            [
              37.5508466,
              55.724179
            ],
            [
              37.5514349,
              55.7237725
            ],
            [
              37.5524763,
              55.7231595
            ],
            [
              37.5531034,
              55.7228294
            ],
            [
              37.5537777,
              55.7225083
            ],
            [
              37.5544585,
              55.7222188
            ],
            [
              37.5551745,
              55.7219511
            ],
            [
              37.5565459,
              55.7214973
            ],
            [
              37.5588389,
              55.7208947
            ],
            [
              37.5612395,
              55.7201852
            ],
            [
              37.5617878,
              55.7200231
            ],
            [
              37.5634609,
              55.7194813
            ],
            [
              37.5644848,
              55.7191497
            ],
            [
              37.5647858,
              55.7190522
            ],
            [
              37.5695653,
              55.7175216
            ],
            [
              37.5714633,
              55.7168473
            ],
            [
              37.5743288,
              55.7156823
            ],
            [
              37.5749066,
              55.715423
            ],
            [
              37.5752534,
              55.715244
            ],
            [
              37.5756357,
              55.7150404
            ],
            [
              37.5780542,
              55.7132773
            ],
            [
              37.5789091,
              55.7126203
            ],
            [
              37.5797746,
              55.7119254
            ],
            [
              37.5812984,
              55.7107019
            ],
            [
              37.5841605,
              55.7087227
            ],
            [
              37.5857835,
              55.7078158
            ],
            [
              37.5863037,
              55.7075415
            ],
            [
              37.5871346,
              55.7071857
            ],
            [
              37.5885664,
              55.7066724
            ],
            [
              37.5890862,
              55.7065215
            ],
            [
              37.5896611,
              55.7063547
            ],
            [
              37.5911762,
              55.7059149
            ],
            [
              37.592375,
              55.7055864
            ],
            [
              37.5956343,
              55.7046792
            ],
            [
              37.5972745,
              55.7042147
            ],
            [
              37.5985785,
              55.7038375
            ],
            [
              37.5996489,
              55.7035546
            ],
            [
              37.6018437,
              55.7029855
            ],
            [
              37.6034144,
              55.7025629
            ],
            [
              37.6047439,
              55.7021474
            ],
            [
              37.6065968,
              55.7015122
            ],
            [
              37.6071755,
              55.7013371
            ],
            [
              37.6078078,
              55.7011835
            ],
            [
              37.608373,
              55.7010739
            ],
            [
              37.6088565,
              55.7010092
            ],
            [
              37.6092522,
              55.7009732
            ],
            [
              37.6096867,
              55.7009502
            ],
            [
              37.6101248,
              55.7009433
            ],
            [
              37.6105812,
              55.7009555
            ],
            [
              37.6110237,
              55.7009802
            ],
            [
              37.6115953,
              55.7010359
            ],
            [
              37.6116848,
              55.7010469
            ],
            [
              37.61222,
              55.7011414
            ],
            [
              37.6127633,
              55.7012574
            ],
            [
              37.6132655,
              55.7013928
            ],
            [
              37.6137042,
              55.7015358
            ],
            [
              37.6139719,
              55.7016406
            ],
            [
              37.6145406,
              55.7018673
            ],
            [
              37.6151252,
              55.7021576
            ],
            [
              37.6156003,
              55.7024565
            ],
            [
              37.6159859,
              55.7027405
            ],
            [
              37.6163273,
              55.7030373
            ],
            [
              37.6166574,
              55.7033454
            ],
            [
              37.6171818,
              55.703844
            ],
            [
              37.6176146,
              55.7042333
            ],
            [
              37.6179837,
              55.7045209
            ],
            [
              37.6183972,
              55.7047692
            ],
            [
              37.6189309,
              55.7050672
            ],
            [
              37.6192287,
              55.7052115
            ],
            [
              37.6195224,
              55.7053324
            ],
            [
              37.6198523,
              55.7054443
            ],
            [
              37.620213,
              55.7055478
            ],
            [
              37.6204947,
              55.7056128
            ],
            [
              37.6208098,
              55.7056732
            ],
            [
              37.6211357,
              55.7057186
            ],
            [
              37.6214938,
              55.7057503
            ],
            [
              37.6219557,
              55.7057741
            ],
            [
              37.6224455,
              55.7057817
            ],
            [
              37.6228907,
              55.7057664
            ],
            [
              37.6237058,
              55.705696
            ],
            [
              37.6257451,
              55.7054922
            ],
            [
              37.626462,
              55.705423
            ],
            [
              37.6302079,
              55.7050507
            ],
            [
              37.6352852,
              55.7045491
            ],
            [
              37.6371482,
              55.7043515
            ],
            [
              37.6380257,
              55.7042679
            ],
            [
              37.6384171,
              55.7042306
            ],
            [
              37.6415902,
              55.7039223
            ],
            [
              37.6418876,
              55.7038934
            ],
            [
              37.6422908,
              55.7038583
            ],
            [
              37.6424455,
              55.7038431
            ],
            [
              37.6436271,
              55.7037499
            ],
            [
              37.6452386,
              55.7036165
            ],
            [
              37.6455009,
              55.7035997
            ],
            [
              37.649093,
              55.7032805
            ],
            [
              37.649855,
              55.7032142
            ],
            [
              37.6505512,
              55.7031834
            ],
            [
              37.6513003,
              55.7031627
            ],
            [
              37.6535739,
              55.7031116
            ],
            [
              37.6542793,
              55.7030994
            ],
            [
              37.6544139,
              55.7030971
            ],
            [
              37.6549091,
              55.7030889
            ],
            [
              37.6552728,
              55.7030928
            ],
            [
              37.6557331,
              55.7031028
            ],
            [
              37.6561488,
              55.7031291
            ],
            [
              37.6565644,
              55.7031712
            ],
            [
              37.6572602,
              55.7032738
            ],
            [
              37.6578673,
              55.7034106
            ],
            [
              37.6582852,
              55.7035352
            ],
            [
              37.6586471,
              55.7036633
            ],
            [
              37.6590029,
              55.7038166
            ],
            [
              37.6592981,
              55.703965
            ],
            [
              37.6625304,
              55.7057339
            ],
            [
              37.669002,
              55.709333
            ],
            [
              37.6694375,
              55.7095752
            ],
            [
              37.6727623,
              55.711371
            ],
            [
              37.6730489,
              55.7115216
            ],
            [
              37.6733546,
              55.7116562
            ],
            [
              37.6736475,
              55.7117889
            ],
            [
              37.6738934,
              55.711891
            ],
            [
              37.6742841,
              55.712049
            ],
            [
              37.6747114,
              55.7122019
            ],
            [
              37.6752084,
              55.7123537
            ],
            [
              37.6801509,
              55.7137963
            ],
            [
              37.6804773,
              55.713896
            ],
            [
              37.6807619,
              55.7139886
            ],
            [
              37.6810359,
              55.7140878
            ],
            [
              37.6813132,
              55.7141908
            ],
            [
              37.6816166,
              55.7143098
            ],
            [
              37.6833314,
              55.7150626
            ],
            [
              37.6836609,
              55.715206
            ],
            [
              37.6839649,
              55.7153252
            ],
            [
              37.6843611,
              55.7154723
            ],
            [
              37.6846868,
              55.7155868
            ],
            [
              37.6850148,
              55.715693
            ],
            [
              37.6854814,
              55.7158264
            ],
            [
              37.6878717,
              55.7165097
            ],
            [
              37.6890221,
              55.7168348
            ],
            [
              37.6895481,
              55.7169835
            ],
            [
              37.6899108,
              55.7170836
            ],
            [
              37.6902621,
              55.7171744
            ],
            [
              37.6913696,
              55.7174433
            ],
            [
              37.6928659,
              55.7177948
            ],
            [
              37.6940908,
              55.71807
            ],
            [
              37.694585,
              55.7181897
            ],
            [
              37.69525,
              55.7183521
            ],
            [
              37.6957582,
              55.7184827
            ],
            [
              37.6962492,
              55.7186157
            ],
            [
              37.6968961,
              55.7188025
            ],
            [
              37.6979985,
              55.719134
            ],
            [
              37.6992312,
              55.7194892
            ],
            [
              37.7000532,
              55.7197334
            ],
            [
              37.700473,
              55.7198543
            ],
            [
              37.7007379,
              55.7199195
            ],
            [
              37.7010302,
              55.7199778
            ],
            [
              37.7013652,
              55.7200327
            ],
            [
              37.7026994,
              55.7202182
            ],
            [
              37.7030015,
              55.720267
            ],
            [
              37.7032493,
              55.7203171
            ],
            [
              37.7035112,
              55.7203799
            ],
            [
              37.7037968,
              55.7204557
            ],
            [
              37.7041062,
              55.7205486
            ],
            [
              37.7055656,
              55.7210032
            ],
            [
              37.7065739,
              55.7213355
            ],
            [
              37.7069244,
              55.7214651
            ],
            [
              37.7076955,
              55.7217728
            ],
            [
              37.708034,
              55.7219025
            ],
            [
              37.7090355,
              55.7222234
            ],
            [
              37.7101511,
              55.7225777
            ],
            [
              37.7104891,
              55.7226851
            ],
            [
              37.7112863,
              55.7229496
            ],
            [
              37.7114852,
              55.7230291
            ],
            [
              37.711683,
              55.7231197
            ],
            [
              37.7118334,
              55.7232044
            ],
            [
              37.7120098,
              55.7233208
            ],
            [
              37.7121738,
              55.7234436
            ],
            [
              37.7123031,
              55.7235625
            ],
            [
              37.7124132,
              55.7236832
            ],
            [
              37.7125036,
              55.7238359
            ],
            [
              37.7125669,
              55.7239637
            ],
            [
              37.7126085,
              55.7240711
            ],
            [
              37.7126355,
              55.7241693
            ],
            [
              37.7126533,
              55.7242803
            ],
            [
              37.7126533,
              55.7244625
            ],
            [
              37.7126451,
              55.7245689
            ],
            [
              37.7126246,
              55.7246844
            ],
            [
              37.7125783,
              55.7248381
            ],
            [
              37.7125418,
              55.7249204
            ],
            [
              37.7124492,
              55.7250521
            ],
            [
              37.7123591,
              55.7251564
            ],
            [
              37.7122032,
              55.7253059
            ],
            [
              37.7119574,
              55.7255059
            ],
            [
              37.7064609,
              55.7300258
            ],
            [
              37.7054992,
              55.7307939
            ],
            [
              37.7046069,
              55.7314532
            ],
            [
              37.7038899,
              55.7320111
            ],
            [
              37.7032186,
              55.7325334
            ],
            [
              37.7023195,
              55.7332895
            ],
            [
              37.7013012,
              55.7341345
            ],
            [
              37.7004885,
              55.7348458
            ],
            [
              37.6997428,
              55.735512
            ],
            [
              37.6993462,
              55.7359135
            ],
            [
              37.6990481,
              55.7362686
            ],
            [
              37.6986887,
              55.7367564
            ],
            [
              37.698399,
              55.7372275
            ],
            [
              37.6980664,
              55.7378013
            ],
            [
              37.6978411,
              55.7383026
            ],
            [
              37.6976372,
              55.7389127
            ],
            [
              37.697487,
              55.7397281
            ],
            [
              37.6974656,
              55.7406461
            ],
            [
              37.6975836,
              55.7414192
            ],
            [
              37.6977402,
              55.7421942
            ],
            [
              37.6980534,
              55.7429779
            ],
            [
              37.6985058,
              55.7438001
            ],
            [
              37.6989104,
              55.744401
            ],
            [
              37.6996026,
              55.7454499
            ],
            [
              37.6997261,
              55.7456875
            ],
            [
              37.6998287,
              55.7459671
            ],
            [
              37.6998923,
              55.7462358
            ],
            [
              37.6999242,
              55.7465058
            ],
            [
              37.6999185,
              55.7466959
            ],
            [
              37.6998803,
              55.7469243
            ],
            [
              37.6998105,
              55.7471791
            ],
            [
              37.6997311,
              55.7474089
            ],
            [
              37.6995796,
              55.7477328
            ],
            [
              37.699199,
              55.7484272
            ],
            [
              37.6990971,
              55.7485744
            ],
            [
              37.6988838,
              55.7488413
            ],
            [
              37.6986073,
              55.7491805
            ],
            [
              37.6983008,
              55.7495223
            ],
            [
              37.697956,
              55.749883
            ],
            [
              37.6968151,
              55.7510302
            ],
            [
              37.6965021,
              55.7513251
            ],
            [
              37.6962821,
              55.7515536
            ],
            [
              37.6956072,
              55.7522547
            ],
            [
              37.6950641,
              55.752843
            ],
            [
              37.6947905,
              55.7531687
            ],
            [
              37.6945393,
              55.7534965
            ],
            [
              37.6935195,
              55.7549131
            ],
            [
              37.6931619,
              55.7554684
            ],
            [
              37.6928972,
              55.7560554
            ],
            [
              37.6927539,
              55.7565708
            ],
            [
              37.6926966,
              55.7569869
            ],
            [
              37.6923888,
              55.7618042
            ],
            [
              37.6923917,
              55.7620881
            ],
            [
              37.6926924,
              55.7664536
            ],
            [
              37.6926611,
              55.7669801
            ],
            [
              37.6925617,
              55.7675032
            ],
            [
              37.6923943,
              55.7680217
            ],
            [
              37.6921605,
              55.7685311
            ],
            [
              37.6918611,
              55.7690298
            ],
            [
              37.6914977,
              55.769515
            ],
            [
              37.6910724,
              55.7699838
            ],
            [
              37.6905869,
              55.7704343
            ],
            [
              37.6900447,
              55.7708632
            ],
            [
              37.689448,
              55.771269
            ],
            [
              37.6891313,
              55.7714618
            ],
            [
              37.6866636,
              55.7728977
            ],
            [
              37.6859178,
              55.7733752
            ],
            [
              37.6852208,
              55.7738668
            ],
            [
              37.6838161,
              55.7749175
            ],
            [
              37.6832534,
              55.775351
            ],
            [
              37.6822257,
              55.7761031
            ],
            [
              37.6820166,
              55.7762426
            ],
            [
              37.6817484,
              55.7764146
            ],
            [
              37.6814829,
              55.7765911
            ],
            [
              37.6812355,
              55.7767355
            ],
            [
              37.6808752,
              55.776944
            ],
            [
              37.6803779,
              55.7771872
            ],
            [
              37.6802746,
              55.7772325
            ],
            [
              37.6800043,
              55.7773477
            ],
            [
              37.6796783,
              55.7774819
            ],
            [
              37.6772928,
              55.7783537
            ],
            [
              37.6760722,
              55.7787706
            ],
            [
              37.6734089,
              55.7797311
            ],
            [
              37.6726234,
              55.780041
            ],
            [
              37.6721296,
              55.7802485
            ],
            [
              37.6706688,
              55.7809354
            ],
            [
              37.6681036,
              55.7822616
            ],
            [
              37.6672912,
              55.7827409
            ],
            [
              37.6669057,
              55.7829782
            ],
            [
              37.6663435,
              55.7833645
            ],
            [
              37.6659816,
              55.7836507
            ],
            [
              37.6657042,
              55.78387
            ],
            [
              37.6655772,
              55.7839668
            ],
            [
              37.6650482,
              55.784372
            ],
            [
              37.6648271,
              55.7845413
            ],
            [
              37.6647649,
              55.784589
            ],
            [
              37.6636153,
              55.7854792
            ],
            [
              37.6631392,
              55.7858478
            ],
            [
              37.6617482,
              55.7869004
            ],
            [
              37.6602844,
              55.788059
            ],
            [
              37.6592532,
              55.7888347
            ],
            [
              37.6589711,
              55.7890497
            ],
            [
              37.6585287,
              55.7893889
            ],
            [
              37.6577496,
              55.789984
            ],
            [
              37.6570736,
              55.7905046
            ],
            [
              37.6570294,
              55.7905388
            ],
            [
              37.6567945,
              55.7907195
            ],
            [
              37.6566543,
              55.7908239
            ],
            [
              37.6565529,
              55.7908994
            ],
            [
              37.6562753,
              55.7911066
            ],
            [
              37.655988,
              55.7913251
            ],
            [
              37.6559484,
              55.7913551
            ],
            [
              37.6553205,
              55.7918321
            ],
            [
              37.6549827,
              55.7920897
            ],
            [
              37.6548052,
              55.7922158
            ],
            [
              37.6546108,
              55.7923401
            ],
            [
              37.6542315,
              55.7925563
            ],
            [
              37.6540636,
              55.7926409
            ],
            [
              37.653921,
              55.7927127
            ],
            [
              37.6537517,
              55.7927893
            ],
            [
              37.6535732,
              55.7928714
            ],
            [
              37.6533127,
              55.7929833
            ],
            [
              37.6530224,
              55.7930952
            ],
            [
              37.6527084,
              55.7932074
            ],
            [
              37.6523663,
              55.7933187
            ],
            [
              37.6519795,
              55.7934299
            ],
            [
              37.6515878,
              55.7935309
            ],
            [
              37.6511389,
              55.7936263
            ],
            [
              37.6507301,
              55.7937016
            ],
            [
              37.6503638,
              55.7937595
            ],
            [
              37.650044,
              55.7937992
            ],
            [
              37.6497034,
              55.7938368
            ],
            [
              37.649383,
              55.79386
            ],
            [
              37.6489442,
              55.7938825
            ],
            [
              37.6484545,
              55.7938929
            ],
            [
              37.6481137,
              55.7938918
            ],
            [
              37.6478389,
              55.7938837
            ],
            [
              37.6475358,
              55.7938685
            ],
            [
              37.6472815,
              55.7938503
            ],
            [
              37.6470352,
              55.7938324
            ],
            [
              37.6468568,
              55.7938143
            ],
            [
              37.6465911,
              55.7937831
            ],
            [
              37.646322,
              55.7937467
            ],
            [
              37.6460217,
              55.7937031
            ],
            [
              37.6458067,
              55.7936654
            ],
            [
              37.6455121,
              55.793609
            ],
            [
              37.6429119,
              55.7930833
            ],
            [
              37.6412731,
              55.7927457
            ],
            [
              37.6401995,
              55.7925227
            ],
            [
              37.6397458,
              55.7924285
            ],
            [
              37.6386356,
              55.7922195
            ],
            [
              37.638202,
              55.7921533
            ],
            [
              37.6378516,
              55.7921145
            ],
            [
              37.6375977,
              55.7920921
            ],
            [
              37.6369066,
              55.7920607
            ],
            [
              37.635632,
              55.792008
            ],
            [
              37.6346275,
              55.7919599
            ],
            [
              37.6340773,
              55.7919336
            ],
            [
              37.6337684,
              55.7919204
            ],
            [
              37.6335887,
              55.7919148
            ],
            [
              37.6334109,
              55.7919107
            ],
            [
              37.6331521,
              55.7919103
            ],
            [
              37.6328873,
              55.7919127
            ],
            [
              37.632655,
              55.7919197
            ],
            [
              37.6324442,
              55.7919299
            ],
            [
              37.6319077,
              55.7919681
            ],
            [
              37.6315609,
              55.7920034
            ],
            [
              37.631342,
              55.7920315
            ],
            [
              37.6311124,
              55.7920657
            ],
            [
              37.6306495,
              55.7921442
            ],
            [
              37.6301634,
              55.7922336
            ],
            [
              37.6289648,
              55.7924601
            ],
            [
              37.6286834,
              55.7925089
            ],
            [
              37.6283804,
              55.7925511
            ],
            [
              37.6280518,
              55.7925881
            ],
            [
              37.6277522,
              55.7926156
            ],
            [
              37.6273968,
              55.792635
            ],
            [
              37.6265992,
              55.7926796
            ],
            [
              37.6253219,
              55.7927496
            ],
            [
              37.6241655,
              55.7928137
            ],
            [
              37.6239143,
              55.7928247
            ],
            [
              37.623816,
              55.792829
            ],
            [
              37.6237555,
              55.7928317
            ],
            [
              37.6229492,
              55.7928524
            ],
            [
              37.6223753,
              55.7928688
            ],
            [
              37.6213739,
              55.7929221
            ],
            [
              37.6193882,
              55.7930578
            ],
            [
              37.6181673,
              55.7931263
            ],
            [
              37.617589,
              55.7931546
            ],
            [
              37.6169961,
              55.7931757
            ],
            [
              37.6166867,
              55.7931812
            ],
            [
              37.6163741,
              55.7931852
            ],
            [
              37.6160477,
              55.7931886
            ],
            [
              37.6157234,
              55.79319
            ],
            [
              37.6153846,
              55.7931891
            ],
            [
              37.6150427,
              55.7931857
            ],
            [
              37.6146961,
              55.7931808
            ],
            [
              37.6143248,
              55.7931711
            ],
            [
              37.6137212,
              55.7931502
            ],
            [
              37.6133178,
              55.7931361
            ],
            [
              37.6129701,
              55.7931245
            ],
            [
              37.606566,
              55.7928882
            ],
            [
              37.6053838,
              55.7928463
            ],
            [
              37.6052789,
              55.7928427
            ],
            [
              37.6048798,
              55.792829
            ],
            [
              37.6045537,
              55.7928173
            ],
            [
              37.6034829,
              55.7927745
            ],
            [
              37.6023695,
              55.79273
            ],
            [
              37.6019029,
              55.7927102
            ],
            [
              37.6015558,
              55.7926954
            ],
            [
              37.6008183,
              55.7926627
            ],
            [
              37.6005221,
              55.7926454
            ],
            [
              37.5996791,
              55.7925867
            ],
            [
              37.5991276,
              55.792542
            ],
            [
              37.5988141,
              55.7925167
            ],
            [
              37.5982708,
              55.7924734
            ],
            [
              37.5972342,
              55.7923856
            ],
            [
              37.5969714,
              55.7923616
            ],
            [
              37.5963643,
              55.7923131
            ],
            [
              37.5960926,
              55.7922955
            ],
            [
              37.595855,
              55.7922819
            ],
            [
              37.5958078,
              55.7922792
            ],
            [
              37.5953106,
              55.7922583
            ],
            [
              37.5950641,
              55.7922508
            ],
            [
              37.5946968,
              55.7922496
            ],
            [
              37.5931111,
              55.792237
            ],
            [
              37.5909208,
              55.7922457
            ],
            [
              37.5897815,
              55.7922529
            ],
            [
              37.5886349,
              55.7922526
            ],
            [
              37.5872999,
              55.7922516
            ],
            [
              37.5857433,
              55.7922325
            ],
            [
              37.5853033,
              55.792226
            ],
            [
              37.5847506,
              55.7922204
            ],
            [
              37.584124,
              55.7922261
            ],
            [
              37.5832623,
              55.7922663
            ],
            [
              37.5828057,
              55.7922753
            ],
            [
              37.5823057,
              55.7922723
            ],
            [
              37.5820719,
              55.7922594
            ],
            [
              37.5817187,
              55.7922341
            ],
            [
              37.5796945,
              55.7920994
            ],
            [
              37.5791335,
              55.7920701
            ],
            [
              37.5783895,
              55.792027
            ],
            [
              37.5783012,
              55.7920219
            ],
            [
              37.5776938,
              55.7919943
            ],
            [
              37.5769777,
              55.7919601
            ],
            [
              37.5760002,
              55.79192
            ],
            [
              37.5757449,
              55.7919115
            ],
            [
              37.5754232,
              55.7918952
            ],
            [
              37.5752118,
              55.7918801
            ],
            [
              37.574902,
              55.7918416
            ],
            [
              37.574667,
              55.7917913
            ],
            [
              37.5744681,
              55.7917346
            ],
            [
              37.5742742,
              55.7916613
            ],
            [
              37.5740551,
              55.7915606
            ],
            [
              37.5738421,
              55.791446
            ],
            [
              37.572442,
              55.7904562
            ],
            [
              37.5722409,
              55.790314
            ],
            [
              37.5716737,
              55.7898985
            ],
            [
              37.5713365,
              55.7896525
            ],
            [
              37.5710897,
              55.7894795
            ],
            [
              37.5704796,
              55.7890518
            ],
            [
              37.5701772,
              55.7888399
            ],
            [
              37.5697519,
              55.788539
            ],
            [
              37.5677689,
              55.7871056
            ],
            [
              37.5669488,
              55.7865191
            ],
            [
              37.5662136,
              55.7859934
            ],
            [
              37.5650213,
              55.7851408
            ],
            [
              37.5617971,
              55.7828221
            ],
            [
              37.5616371,
              55.7827089
            ],
            [
              37.5609886,
              55.782226
            ],
            [
              37.5604057,
              55.7817942
            ],
            [
              37.5595703,
              55.7811755
            ],
            [
              37.558769,
              55.780635
            ],
            [
              37.55806,
              55.7801185
            ],
            [
              37.5576799,
              55.7797878
            ],
            [
              37.5574421,
              55.779512
            ],
            [
              37.5573552,
              55.7794112
            ],
            [
              37.5567865,
              55.7786738
            ],
            [
              37.555858,
              55.777425
            ],
            [
              37.5556466,
              55.7771374
            ],
            [
              37.5554052,
              55.776809
            ],
            [
              37.5552489,
              55.7766096
            ],
            [
              37.5550578,
              55.7763658
            ],
            [
              37.5547122,
              55.7759491
            ],
            [
              37.5544732,
              55.7756702
            ],
            [
              37.5543428,
              55.7755345
            ],
            [
              37.5542038,
              55.7754019
            ],
            [
              37.5540231,
              55.7752488
            ],
            [
              37.5538265,
              55.7751047
            ],
            [
              37.5535769,
              55.774935
            ],
            [
              37.5533558,
              55.7748056
            ],
            [
              37.5531807,
              55.7747161
            ],
            [
              37.5527947,
              55.7745464
            ],
            [
              37.5525563,
              55.7744521
            ],
            [
              37.55227,
              55.7743577
            ],
            [
              37.5519828,
              55.774274
            ],
            [
              37.5517325,
              55.7742119
            ],
            [
              37.5514195,
              55.7741511
            ],
            [
              37.5511178,
              55.7741021
            ],
            [
              37.5508948,
              55.7740755
            ],
            [
              37.5506488,
              55.77405
            ],
            [
              37.5505311,
              55.774038
            ],
            [
              37.550235,
              55.774008
            ]
          ]
        ]
      },
      "id": "relation/2094286"
    }
  ]
}